{"type":"FeatureCollection","features":[{"type":"Feature","geometry":{"type":"Point","coordinates":[23.740716,37.940544]},"properties":{"id":"gtfs/oasa-metro/_CE_B1_CE_B3_20_CE_B4_CE_B7_CE_BC_CE_B7_CF_84_CF_81_CE_B9_CE_BF_CF_82/5","name":"ΑΓ. ΔΗΜΗΤΡΙΟΣ","mode":"subway","system":"Metro","status":"open","status_detail":"Open","status_source":"Published in current static GTFS","network":"Athens Metro","operator":"1","ref":"AGD2","route_ref":"M2","platform_model":"Route-specific platform group"}},{"type":"Feature","geometry":{"type":"Point","coordinates":[23.659339,37.989948]},"properties":{"id":"gtfs/oasa-metro/_CE_B1_CE_B3_CE_B9_CE_B1_20_CE_B2_CE_B1_CF_81_CE_B2_CE_B1_CF_81_CE_B1/3","name":"ΑΓΙΑ ΒΑΡΒΑΡΑ","mode":"subway","system":"Metro","status":"open","status_detail":"Open","status_source":"Published in current static GTFS","network":"Athens Metro","operator":"1","ref":"VAR2","route_ref":"M3","platform_model":"Route-specific platform group"}},{"type":"Feature","geometry":{"type":"Point","coordinates":[23.667741,37.997096]},"properties":{"id":"gtfs/oasa-metro/_CE_B1_CE_B3_CE_B9_CE_B1_20_CE_BC_CE_B1_CF_81_CE_B9_CE_BD_CE_B1/3","name":"ΑΓΙΑ ΜΑΡΙΝΑ","mode":"subway","system":"Metro","status":"open","status_detail":"Open","status_source":"Published in current static GTFS","network":"Athens Metro","operator":"1","ref":"AMA2","route_ref":"M3","platform_model":"Route-specific platform group"}},{"type":"Feature","geometry":{"type":"Point","coordinates":[23.812314,38.017232]},"properties":{"id":"gtfs/oasa-metro/_CE_B1_CE_B3_CE_B9_CE_B1_20_CF_80_CE_B1_CF_81_CE_B1_CF_83_CE_BA_CE_B5_CF_85_CE_B7/3","name":"ΑΓΙΑ ΠΑΡΑΣΚΕΥΗ","mode":"subway","system":"Metro","status":"open","status_detail":"Open","status_source":"Published in current static GTFS","network":"Athens Metro","operator":"1","ref":"AGP2","route_ref":"M3","platform_model":"Route-specific platform group"}},{"type":"Feature","geometry":{"type":"Point","coordinates":[23.699631,38.006708]},"properties":{"id":"gtfs/oasa-metro/_CE_B1_CE_B3_CE_B9_CE_BF_CF_82_20_CE_B1_CE_BD_CF_84_CF_89_CE_BD_CE_B9_CE_BF_CF_82/5","name":"ΑΓΙΟΣ ΑΝΤΩΝΙΟΣ","mode":"subway","system":"Metro","status":"open","status_detail":"Open","status_source":"Published in current static GTFS","network":"Athens Metro","operator":"1","ref":"AGA2","route_ref":"M2","platform_model":"Route-specific platform group"}},{"type":"Feature","geometry":{"type":"Point","coordinates":[23.731823,38.020135]},"properties":{"id":"gtfs/oasa-metro/_CE_B1_CE_B3_CE_B9_CE_BF_CF_82_20_CE_B5_CE_BB_CE_B5_CF_85_CE_B8_CE_B5_CF_81_CE_B9_CE_BF_CF_82/4","name":"ΑΓΙΟΣ ΕΛΕΥΘΕΡΙΟΣ","mode":"subway","system":"Metro","status":"open","status_detail":"Open","status_source":"Published in current static GTFS","network":"Athens Metro","operator":"1","ref":"AGEL2","route_ref":"M1","platform_model":"Route-specific platform group"}},{"type":"Feature","geometry":{"type":"Point","coordinates":[23.734735,37.956697]},"properties":{"id":"gtfs/oasa-metro/_CE_B1_CE_B3_CE_B9_CE_BF_CF_82_20_CE_B9_CF_89_CE_B1_CE_BD_CE_BD_CE_B7_CF_82/5","name":"ΑΓΙΟΣ ΙΩΑΝΝΗΣ","mode":"subway","system":"Metro","status":"open","status_detail":"Open","status_source":"Published in current static GTFS","network":"Athens Metro","operator":"1","ref":"AGI2","route_ref":"M2","platform_model":"Route-specific platform group"}},{"type":"Feature","geometry":{"type":"Point","coordinates":[23.727711,38.006919]},"properties":{"id":"gtfs/oasa-metro/_CE_B1_CE_B3_CE_B9_CE_BF_CF_82_20_CE_BD_CE_B9_CE_BA_CE_BF_CE_BB_CE_B1_CE_BF_CF_82/4","name":"ΑΓΙΟΣ ΝΙΚΟΛΑΟΣ","mode":"subway","system":"Metro","status":"open","status_detail":"Open","status_source":"Published in current static GTFS","network":"Athens Metro","operator":"1","ref":"AGNI2","route_ref":"M1","platform_model":"Route-specific platform group"}},{"type":"Feature","geometry":{"type":"Point","coordinates":[23.681808,37.991957]},"properties":{"id":"gtfs/oasa-metro/_CE_B1_CE_B9_CE_B3_CE_B1_CE_BB_CE_B5_CF_89/3","name":"ΑΙΓΑΛΕΩ","mode":"subway","system":"Metro","status":"open","status_detail":"Open","status_source":"Published in current static GTFS","network":"Athens Metro","operator":"1","ref":"EGA2","route_ref":"M3","platform_model":"Route-specific platform group"}},{"type":"Feature","geometry":{"type":"Point","coordinates":[23.729623,37.968772]},"properties":{"id":"gtfs/oasa-metro/_CE_B1_CE_BA_CF_81_CE_BF_CF_80_CE_BF_CE_BB_CE_B7/5","name":"ΑΚΡΟΠΟΛΗ","mode":"subway","system":"Metro","status":"open","status_detail":"Open","status_source":"Published in current static GTFS","network":"Athens Metro","operator":"1","ref":"AKR2","route_ref":"M2","platform_model":"Route-specific platform group"}},{"type":"Feature","geometry":{"type":"Point","coordinates":[23.744583,37.918129]},"properties":{"id":"gtfs/oasa-metro/_CE_B1_CE_BB_CE_B9_CE_BC_CE_BF_CF_82/5","name":"ΑΛΙΜΟΣ","mode":"subway","system":"Metro","status":"open","status_detail":"Open","status_source":"Published in current static GTFS","network":"Athens Metro","operator":"1","ref":"ALI2","route_ref":"M2","platform_model":"Route-specific platform group"}},{"type":"Feature","geometry":{"type":"Point","coordinates":[23.75703,37.987344]},"properties":{"id":"gtfs/oasa-metro/_CE_B1_CE_BC_CF_80_CE_B5_CE_BB_CE_BF_CE_BA_CE_B7_CF_80_CE_BF_CE_B9/3","name":"ΑΜΠΕΛΟΚΗΠΟΙ","mode":"subway","system":"Metro","status":"open","status_detail":"Open","status_source":"Published in current static GTFS","network":"Athens Metro","operator":"1","ref":"AMB2","route_ref":"M3","platform_model":"Route-specific platform group"}},{"type":"Feature","geometry":{"type":"Point","coordinates":[23.690366,38.01751]},"properties":{"id":"gtfs/oasa-metro/_CE_B1_CE_BD_CE_B8_CE_BF_CF_85_CF_80_CE_BF_CE_BB_CE_B7/5","name":"ΑΝΘΟΥΠΟΛΗ","mode":"subway","system":"Metro","status":"open","status_detail":"Open","status_source":"Published in current static GTFS","network":"Athens Metro","operator":"1","ref":"ANT2","route_ref":"M2","platform_model":"Route-specific platform group"}},{"type":"Feature","geometry":{"type":"Point","coordinates":[23.735964,38.023795]},"properties":{"id":"gtfs/oasa-metro/_CE_B1_CE_BD_CF_89_20_CF_80_CE_B1_CF_84_CE_B7_CF_83_CE_B9_CE_B1/4","name":"ΑΝΩ ΠΑΤΗΣΙΑ","mode":"subway","system":"Metro","status":"open","status_detail":"Open","status_source":"Published in current static GTFS","network":"Athens Metro","operator":"1","ref":"ANPA2","route_ref":"M1","platform_model":"Route-specific platform group"}},{"type":"Feature","geometry":{"type":"Point","coordinates":[23.745906,37.903112]},"properties":{"id":"gtfs/oasa-metro/_CE_B1_CF_81_CE_B3_CF_85_CF_81_CE_BF_CF_85_CF_80_CE_BF_CE_BB_CE_B7/5","name":"ΑΡΓΥΡΟΥΠΟΛΗ","mode":"subway","system":"Metro","status":"open","status_detail":"Open","status_source":"Published in current static GTFS","network":"Athens Metro","operator":"1","ref":"ARG2","route_ref":"M2","platform_model":"Route-specific platform group"}},{"type":"Feature","geometry":{"type":"Point","coordinates":[23.722835,37.999511]},"properties":{"id":"gtfs/oasa-metro/_CE_B1_CF_84_CF_84_CE_B9_CE_BA_CE_B7/4","name":"ΑΤΤΙΚΗ","mode":"subway","system":"Metro","status":"open","status_detail":"Open","status_source":"Published in current static GTFS","network":"Athens Metro","operator":"1","ref":"ATT12","route_ref":"M1","platform_model":"Route-specific platform group"}},{"type":"Feature","geometry":{"type":"Point","coordinates":[23.722495,37.999323]},"properties":{"id":"gtfs/oasa-metro/_CE_B1_CF_84_CF_84_CE_B9_CE_BA_CE_B7/5","name":"ΑΤΤΙΚΗ","mode":"subway","system":"Metro","status":"open","status_detail":"Open","status_source":"Published in current static GTFS","network":"Athens Metro","operator":"1","ref":"ATT2","route_ref":"M2","platform_model":"Route-specific platform group"}},{"type":"Feature","geometry":{"type":"Point","coordinates":[23.730278,37.993079]},"properties":{"id":"gtfs/oasa-metro/_CE_B2_CE_B9_CE_BA_CF_84_CF_89_CF_81_CE_B9_CE_B1/4","name":"ΒΙΚΤΩΡΙΑ","mode":"subway","system":"Metro","status":"open","status_detail":"Open","status_source":"Published in current static GTFS","network":"Athens Metro","operator":"1","ref":"VICT2","route_ref":"M1","platform_model":"Route-specific platform group"}},{"type":"Feature","geometry":{"type":"Point","coordinates":[23.83359,38.02396]},"properties":{"id":"gtfs/oasa-metro/_CE_B4_20_CF_80_CE_BB_CE_B1_CE_BA_CE_B5_CE_BD_CF_84_CE_B9_CE_B1_CF_82/3","name":"Δ. ΠΛΑΚΕΝΤΙΑΣ","mode":"subway","system":"Metro","status":"open","status_detail":"Open","status_source":"Published in current static GTFS","network":"Athens Metro","operator":"1","ref":"PLK2","route_ref":"M3","platform_model":"Route-specific platform group"}},{"type":"Feature","geometry":{"type":"Point","coordinates":[23.737229,37.94935]},"properties":{"id":"gtfs/oasa-metro/_CE_B4_CE_B1_CF_86_CE_BD_CE_B7/5","name":"ΔΑΦΝΗ","mode":"subway","system":"Metro","status":"open","status_detail":"Open","status_source":"Published in current static GTFS","network":"Athens Metro","operator":"1","ref":"DAF2","route_ref":"M2","platform_model":"Route-specific platform group"}},{"type":"Feature","geometry":{"type":"Point","coordinates":[23.647582,37.942935]},"properties":{"id":"gtfs/oasa-metro/_CE_B4_CE_B7_CE_BC_CE_BF_CF_84_CE_B9_CE_BA_CE_BF_20_CE_B8_CE_B5_CE_B1_CF_84_CF_81_CE_BF/3","name":"ΔΗΜΟΤΙΚΟ ΘΕΑΤΡΟ","mode":"subway","system":"Metro","status":"open","status_detail":"Open","status_source":"Published in current static GTFS","network":"Athens Metro","operator":"1","ref":"DIM2","route_ref":"M3","platform_model":"Route-specific platform group"}},{"type":"Feature","geometry":{"type":"Point","coordinates":[23.785751,38.000054]},"properties":{"id":"gtfs/oasa-metro/_CE_B5_CE_B8_CE_BD_CE_B9_CE_BA_CE_B7_20_CE_B1_CE_BC_CF_85_CE_BD_CE_B1/3","name":"ΕΘΝΙΚΗ ΑΜΥΝΑ","mode":"subway","system":"Metro","status":"open","status_detail":"Open","status_source":"Published in current static GTFS","network":"Athens Metro","operator":"1","ref":"EAM2","route_ref":"M3","platform_model":"Route-specific platform group"}},{"type":"Feature","geometry":{"type":"Point","coordinates":[23.783331,38.044072]},"properties":{"id":"gtfs/oasa-metro/_CE_B5_CE_B9_CF_81_CE_B7_CE_BD_CE_B7/4","name":"ΕΙΡΗΝΗ","mode":"subway","system":"Metro","status":"open","status_detail":"Open","status_source":"Published in current static GTFS","network":"Athens Metro","operator":"1","ref":"IRIN1","route_ref":"M1","platform_model":"Route-specific platform group"}},{"type":"Feature","geometry":{"type":"Point","coordinates":[23.94482,37.93689]},"properties":{"id":"gtfs/oasa-metro/_CE_B5_CE_BB_20_CE_B2_CE_B5_CE_BD_CE_B9_CE_B6_CE_B5_CE_BB_CE_BF_CF_82/3","name":"ΕΛ. ΒΕΝΙΖΕΛΟΣ","mode":"subway","system":"Metro","status":"open","status_detail":"Open","status_source":"Published in current static GTFS","network":"Athens Metro","operator":"1","ref":"ELV2","route_ref":"M3","platform_model":"Route-specific platform group"}},{"type":"Feature","geometry":{"type":"Point","coordinates":[23.694176,37.98791]},"properties":{"id":"gtfs/oasa-metro/_CE_B5_CE_BB_CE_B1_CE_B9_CF_89_CE_BD_CE_B1_CF_82/3","name":"ΕΛΑΙΩΝΑΣ","mode":"subway","system":"Metro","status":"open","status_detail":"Open","status_source":"Published in current static GTFS","network":"Athens Metro","operator":"1","ref":"ELE2","route_ref":"M3","platform_model":"Route-specific platform group"}},{"type":"Feature","geometry":{"type":"Point","coordinates":[23.747598,37.892531]},"properties":{"id":"gtfs/oasa-metro/_CE_B5_CE_BB_CE_BB_CE_B7_CE_BD_CE_B9_CE_BA_CE_BF/5","name":"ΕΛΛΗΝΙΚΟ","mode":"subway","system":"Metro","status":"open","status_detail":"Open","status_source":"Published in current static GTFS","network":"Athens Metro","operator":"1","ref":"ELL2","route_ref":"M2","platform_model":"Route-specific platform group"}},{"type":"Feature","geometry":{"type":"Point","coordinates":[23.747296,37.97638]},"properties":{"id":"gtfs/oasa-metro/_CE_B5_CF_85_CE_B1_CE_B3_CE_B3_CE_B5_CE_BB_CE_B9_CF_83_CE_BC_CE_BF_CF_82/3","name":"ΕΥΑΓΓΕΛΙΣΜΟΣ","mode":"subway","system":"Metro","status":"open","status_detail":"Open","status_source":"Published in current static GTFS","network":"Athens Metro","operator":"1","ref":"EVA2","route_ref":"M3","platform_model":"Route-specific platform group"}},{"type":"Feature","geometry":{"type":"Point","coordinates":[23.7446,37.929834]},"properties":{"id":"gtfs/oasa-metro/_CE_B7_CE_BB_CE_B9_CE_BF_CF_85_CF_80_CE_BF_CE_BB_CE_B7/5","name":"ΗΛΙΟΥΠΟΛΗ","mode":"subway","system":"Metro","status":"open","status_detail":"Open","status_source":"Published in current static GTFS","network":"Athens Metro","operator":"1","ref":"ILI2","route_ref":"M2","platform_model":"Route-specific platform group"}},{"type":"Feature","geometry":{"type":"Point","coordinates":[23.766074,38.046254]},"properties":{"id":"gtfs/oasa-metro/_CE_B7_CF_81_CE_B1_CE_BA_CE_BB_CE_B5_CE_B9_CE_BF/4","name":"ΗΡΑΚΛΕΙΟ","mode":"subway","system":"Metro","status":"open","status_detail":"Open","status_source":"Published in current static GTFS","network":"Athens Metro","operator":"1","ref":"IRAK2","route_ref":"M1","platform_model":"Route-specific platform group"}},{"type":"Feature","geometry":{"type":"Point","coordinates":[23.720702,37.976717]},"properties":{"id":"gtfs/oasa-metro/_CE_B8_CE_B7_CF_83_CE_B5_CE_B9_CE_BF/4","name":"ΘΗΣΕΙΟ","mode":"subway","system":"Metro","status":"open","status_detail":"Open","status_source":"Published in current static GTFS","network":"Athens Metro","operator":"1","ref":"THIS2","route_ref":"M1","platform_model":"Route-specific platform group"}},{"type":"Feature","geometry":{"type":"Point","coordinates":[23.69733,37.960405]},"properties":{"id":"gtfs/oasa-metro/_CE_BA_CE_B1_CE_BB_CE_BB_CE_B9_CE_B8_CE_B5_CE_B1/4","name":"ΚΑΛΛΙΘΕΑ","mode":"subway","system":"Metro","status":"open","status_detail":"Open","status_source":"Published in current static GTFS","network":"Athens Metro","operator":"1","ref":"KALI2","route_ref":"M1","platform_model":"Route-specific platform group"}},{"type":"Feature","geometry":{"type":"Point","coordinates":[23.86988,37.98374]},"properties":{"id":"gtfs/oasa-metro/_CE_BA_CE_B1_CE_BD_CF_84_CE_B6_CE_B1/3","name":"ΚΑΝΤΖΑ","mode":"subway","system":"Metro","status":"open","status_detail":"Open","status_source":"Published in current static GTFS","network":"Athens Metro","operator":"1","ref":"KAN2","route_ref":"M3","platform_model":"Route-specific platform group"}},{"type":"Feature","geometry":{"type":"Point","coordinates":[23.776163,37.99324]},"properties":{"id":"gtfs/oasa-metro/_CE_BA_CE_B1_CF_84_CE_B5_CF_87_CE_B1_CE_BA_CE_B7/3","name":"ΚΑΤΕΧΑΚΗ","mode":"subway","system":"Metro","status":"open","status_detail":"Open","status_source":"Published in current static GTFS","network":"Athens Metro","operator":"1","ref":"KAT2","route_ref":"M3","platform_model":"Route-specific platform group"}},{"type":"Feature","geometry":{"type":"Point","coordinates":[23.728792,38.011579]},"properties":{"id":"gtfs/oasa-metro/_CE_BA_CE_B1_CF_84_CF_89_20_CF_80_CE_B1_CF_84_CE_B7_CF_83_CE_B9_CE_B1/4","name":"ΚΑΤΩ ΠΑΤΗΣΙΑ","mode":"subway","system":"Metro","status":"open","status_detail":"Open","status_source":"Published in current static GTFS","network":"Athens Metro","operator":"1","ref":"KAPA2","route_ref":"M1","platform_model":"Route-specific platform group"}},{"type":"Feature","geometry":{"type":"Point","coordinates":[23.804028,38.065922]},"properties":{"id":"gtfs/oasa-metro/_CE_BA_CE_B1_CF_84/4","name":"ΚΑΤ","mode":"subway","system":"Metro","status":"open","status_detail":"Open","status_source":"Published in current static GTFS","network":"Athens Metro","operator":"1","ref":"KATT2","route_ref":"M1","platform_model":"Route-specific platform group"}},{"type":"Feature","geometry":{"type":"Point","coordinates":[23.711454,37.978651]},"properties":{"id":"gtfs/oasa-metro/_CE_BA_CE_B5_CF_81_CE_B1_CE_BC_CE_B9_CE_BA_CE_BF_CF_82/3","name":"ΚΕΡΑΜΙΚΟΣ","mode":"subway","system":"Metro","status":"open","status_detail":"Open","status_source":"Published in current static GTFS","network":"Athens Metro","operator":"1","ref":"KER2","route_ref":"M3","platform_model":"Route-specific platform group"}},{"type":"Feature","geometry":{"type":"Point","coordinates":[23.808308,38.073682]},"properties":{"id":"gtfs/oasa-metro/_CE_BA_CE_B7_CF_86_CE_B9_CF_83_CE_B9_CE_B1/4","name":"ΚΗΦΙΣΙΑ","mode":"subway","system":"Metro","status":"open","status_detail":"Open","status_source":"Published in current static GTFS","network":"Athens Metro","operator":"1","ref":"KIFI2","route_ref":"M1","platform_model":"Route-specific platform group"}},{"type":"Feature","geometry":{"type":"Point","coordinates":[23.650442,37.977031]},"properties":{"id":"gtfs/oasa-metro/_CE_BA_CE_BF_CF_81_CF_85_CE_B4_CE_B1_CE_BB_CE_BB_CE_BF_CF_82/3","name":"ΚΟΡΥΔΑΛΛΟΣ","mode":"subway","system":"Metro","status":"open","status_detail":"Open","status_source":"Published in current static GTFS","network":"Athens Metro","operator":"1","ref":"KOR2","route_ref":"M3","platform_model":"Route-specific platform group"}},{"type":"Feature","geometry":{"type":"Point","coordinates":[23.8959,37.91307]},"properties":{"id":"gtfs/oasa-metro/_CE_BA_CE_BF_CF_81_CF_89_CF_80_CE_B9/3","name":"ΚΟΡΩΠΙ","mode":"subway","system":"Metro","status":"open","status_detail":"Open","status_source":"Published in current static GTFS","network":"Athens Metro","operator":"1","ref":"KRO2","route_ref":"M3","platform_model":"Route-specific platform group"}},{"type":"Feature","geometry":{"type":"Point","coordinates":[23.639786,37.95956]},"properties":{"id":"gtfs/oasa-metro/_CE_BC_CE_B1_CE_BD_CE_B9_CE_B1_CF_84_CE_B9_CE_BA_CE_B1/3","name":"ΜΑΝΙΑΤΙΚΑ","mode":"subway","system":"Metro","status":"open","status_detail":"Open","status_source":"Published in current static GTFS","network":"Athens Metro","operator":"1","ref":"MAN2","route_ref":"M3","platform_model":"Route-specific platform group"}},{"type":"Feature","geometry":{"type":"Point","coordinates":[23.80498,38.056182]},"properties":{"id":"gtfs/oasa-metro/_CE_BC_CE_B1_CF_81_CE_BF_CF_85_CF_83_CE_B9/4","name":"ΜΑΡΟΥΣΙ","mode":"subway","system":"Metro","status":"open","status_detail":"Open","status_source":"Published in current static GTFS","network":"Athens Metro","operator":"1","ref":"AMAR2","route_ref":"M1","platform_model":"Route-specific platform group"}},{"type":"Feature","geometry":{"type":"Point","coordinates":[23.752911,37.979304]},"properties":{"id":"gtfs/oasa-metro/_CE_BC_CE_B5_CE_B3_CE_B1_CF_81_CE_BF_20_CE_BC_CE_BF_CF_85_CF_83_CE_B9_CE_BA_CE_B7_CF_82/3","name":"ΜΕΓΑΡΟ ΜΟΥΣΙΚΗΣ","mode":"subway","system":"Metro","status":"open","status_detail":"Open","status_source":"Published in current static GTFS","network":"Athens Metro","operator":"1","ref":"MEG2","route_ref":"M3","platform_model":"Route-specific platform group"}},{"type":"Feature","geometry":{"type":"Point","coordinates":[23.721224,37.986334]},"properties":{"id":"gtfs/oasa-metro/_CE_BC_CE_B5_CF_84_CE_B1_CE_BE_CE_BF_CF_85_CF_81_CE_B3_CE_B5_CE_B9_CE_BF/5","name":"ΜΕΤΑΞΟΥΡΓΕΙΟ","mode":"subway","system":"Metro","status":"open","status_detail":"Open","status_source":"Published in current static GTFS","network":"Athens Metro","operator":"1","ref":"MET2","route_ref":"M2","platform_model":"Route-specific platform group"}},{"type":"Feature","geometry":{"type":"Point","coordinates":[23.725616,37.976085]},"properties":{"id":"gtfs/oasa-metro/_CE_BC_CE_BF_CE_BD_CE_B1_CF_83_CF_84_CE_B7_CF_81_CE_B1_CE_BA_CE_B9/3","name":"ΜΟΝΑΣΤΗΡΑΚΙ","mode":"subway","system":"Metro","status":"open","status_detail":"Open","status_source":"Published in current static GTFS","network":"Athens Metro","operator":"1","ref":"MON2","route_ref":"M3","platform_model":"Route-specific platform group"}},{"type":"Feature","geometry":{"type":"Point","coordinates":[23.725616,37.976085]},"properties":{"id":"gtfs/oasa-metro/_CE_BC_CE_BF_CE_BD_CE_B1_CF_83_CF_84_CE_B7_CF_81_CE_B1_CE_BA_CE_B9/4","name":"ΜΟΝΑΣΤΗΡΑΚΙ","mode":"subway","system":"Metro","status":"open","status_detail":"Open","status_source":"Published in current static GTFS","network":"Athens Metro","operator":"1","ref":"MONA2","route_ref":"M1","platform_model":"Route-specific platform group"}},{"type":"Feature","geometry":{"type":"Point","coordinates":[23.679688,37.955076]},"properties":{"id":"gtfs/oasa-metro/_CE_BC_CE_BF_CF_83_CF_87_CE_B1_CF_84_CE_BF/4","name":"ΜΟΣΧΑΤΟ","mode":"subway","system":"Metro","status":"open","status_detail":"Open","status_source":"Published in current static GTFS","network":"Athens Metro","operator":"1","ref":"MOSC2","route_ref":"M1","platform_model":"Route-specific platform group"}},{"type":"Feature","geometry":{"type":"Point","coordinates":[23.728515,37.957626]},"properties":{"id":"gtfs/oasa-metro/_CE_BD_20_CE_BA_CE_BF_CF_83_CE_BC_CE_BF_CF_82/5","name":"Ν.ΚΟΣΜΟΣ","mode":"subway","system":"Metro","status":"open","status_detail":"Open","status_source":"Published in current static GTFS","network":"Athens Metro","operator":"1","ref":"NKO2","route_ref":"M2","platform_model":"Route-specific platform group"}},{"type":"Feature","geometry":{"type":"Point","coordinates":[23.75519,38.041615]},"properties":{"id":"gtfs/oasa-metro/_CE_BD_CE_B5_CE_B1_20_CE_B9_CF_89_CE_BD_CE_B9_CE_B1/4","name":"ΝΕΑ ΙΩΝΙΑ","mode":"subway","system":"Metro","status":"open","status_detail":"Open","status_source":"Published in current static GTFS","network":"Athens Metro","operator":"1","ref":"NEIO2","route_ref":"M1","platform_model":"Route-specific platform group"}},{"type":"Feature","geometry":{"type":"Point","coordinates":[23.79286,38.044806]},"properties":{"id":"gtfs/oasa-metro/_CE_BD_CE_B5_CF_81_CE_B1_CF_84_CE_B6_CE_B9_CF_89_CF_84_CE_B9_CF_83_CF_83_CE_B1/4","name":"ΝΕΡΑΤΖΙΩΤΙΣΣΑ","mode":"subway","system":"Metro","status":"open","status_detail":"Open","status_source":"Published in current static GTFS","network":"Athens Metro","operator":"1","ref":"NERA2","route_ref":"M1","platform_model":"Route-specific platform group"}},{"type":"Feature","geometry":{"type":"Point","coordinates":[23.647352,37.96571]},"properties":{"id":"gtfs/oasa-metro/_CE_BD_CE_B9_CE_BA_CE_B1_CE_B9_CE_B1/3","name":"ΝΙΚΑΙΑ","mode":"subway","system":"Metro","status":"open","status_detail":"Open","status_source":"Published in current static GTFS","network":"Athens Metro","operator":"1","ref":"NIK2","route_ref":"M3","platform_model":"Route-specific platform group"}},{"type":"Feature","geometry":{"type":"Point","coordinates":[23.805665,38.009291]},"properties":{"id":"gtfs/oasa-metro/_CE_BD_CE_BF_CE_BC_CE_B9_CF_83_CE_BC_CE_B1_CF_84_CE_BF_CE_BA_CE_BF_CF_80_CE_B5_CE_B9_CE_BF/3","name":"ΝΟΜΙΣΜΑΤΟΚΟΠΕΙΟ","mode":"subway","system":"Metro","status":"open","status_detail":"Open","status_source":"Published in current static GTFS","network":"Athens Metro","operator":"1","ref":"NOM2","route_ref":"M3","platform_model":"Route-specific platform group"}},{"type":"Feature","geometry":{"type":"Point","coordinates":[23.728692,37.984183]},"properties":{"id":"gtfs/oasa-metro/_CE_BF_CE_BC_CE_BF_CE_BD_CE_BF_CE_B9_CE_B1/4","name":"ΟΜΟΝΟΙΑ","mode":"subway","system":"Metro","status":"open","status_detail":"Open","status_source":"Published in current static GTFS","network":"Athens Metro","operator":"1","ref":"OMON2","route_ref":"M1","platform_model":"Route-specific platform group"}},{"type":"Feature","geometry":{"type":"Point","coordinates":[23.728692,37.984183]},"properties":{"id":"gtfs/oasa-metro/_CE_BF_CE_BC_CE_BF_CE_BD_CE_BF_CE_B9_CE_B1/5","name":"ΟΜΟΝΟΙΑ","mode":"subway","system":"Metro","status":"open","status_detail":"Open","status_source":"Published in current static GTFS","network":"Athens Metro","operator":"1","ref":"OMO2","route_ref":"M2","platform_model":"Route-specific platform group"}},{"type":"Feature","geometry":{"type":"Point","coordinates":[23.86929,38.005457]},"properties":{"id":"gtfs/oasa-metro/_CF_80_CE_B1_CE_BB_CE_BB_CE_B7_CE_BD_CE_B7/3","name":"ΠΑΛΛΗΝΗ","mode":"subway","system":"Metro","status":"open","status_detail":"Open","status_source":"Published in current static GTFS","network":"Athens Metro","operator":"1","ref":"PAL2","route_ref":"M3","platform_model":"Route-specific platform group"}},{"type":"Feature","geometry":{"type":"Point","coordinates":[23.733099,37.980407]},"properties":{"id":"gtfs/oasa-metro/_CF_80_CE_B1_CE_BD_CE_B5_CF_80_CE_B9_CF_83_CF_84_CE_B7_CE_BC_CE_B9_CE_BF/5","name":"ΠΑΝΕΠΙΣΤΗΜΙΟ","mode":"subway","system":"Metro","status":"open","status_detail":"Open","status_source":"Published in current static GTFS","network":"Athens Metro","operator":"1","ref":"PAN2","route_ref":"M2","platform_model":"Route-specific platform group"}},{"type":"Feature","geometry":{"type":"Point","coordinates":[23.763401,37.993299]},"properties":{"id":"gtfs/oasa-metro/_CF_80_CE_B1_CE_BD_CE_BF_CF_81_CE_BC_CE_BF_CF_85/3","name":"ΠΑΝΟΡΜΟΥ","mode":"subway","system":"Metro","status":"open","status_detail":"Open","status_source":"Published in current static GTFS","network":"Athens Metro","operator":"1","ref":"PNR2","route_ref":"M3","platform_model":"Route-specific platform group"}},{"type":"Feature","geometry":{"type":"Point","coordinates":[23.642276,37.948057]},"properties":{"id":"gtfs/oasa-metro/_CF_80_CE_B5_CE_B9_CF_81_CE_B1_CE_B9_CE_B1_CF_82/3","name":"ΠΕΙΡΑΙΑΣ","mode":"subway","system":"Metro","status":"open","status_detail":"Open","status_source":"Published in current static GTFS","network":"Athens Metro","operator":"1","ref":"PEIR32","route_ref":"M3","platform_model":"Route-specific platform group"}},{"type":"Feature","geometry":{"type":"Point","coordinates":[23.643147,37.948117]},"properties":{"id":"gtfs/oasa-metro/_CF_80_CE_B5_CE_B9_CF_81_CE_B1_CE_B9_CE_B1_CF_82/4","name":"ΠΕΙΡΑΙΑΣ","mode":"subway","system":"Metro","status":"open","status_detail":"Open","status_source":"Published in current static GTFS","network":"Athens Metro","operator":"1","ref":"PIRE2","route_ref":"M1","platform_model":"Route-specific platform group"}},{"type":"Feature","geometry":{"type":"Point","coordinates":[23.74467,38.032728]},"properties":{"id":"gtfs/oasa-metro/_CF_80_CE_B5_CF_81_CE_B9_CF_83_CF_83_CE_BF_CF_82/4","name":"ΠΕΡΙΣΣΟΣ","mode":"subway","system":"Metro","status":"open","status_detail":"Open","status_source":"Published in current static GTFS","network":"Athens Metro","operator":"1","ref":"PERI2","route_ref":"M1","platform_model":"Route-specific platform group"}},{"type":"Feature","geometry":{"type":"Point","coordinates":[23.695806,38.012965]},"properties":{"id":"gtfs/oasa-metro/_CF_80_CE_B5_CF_81_CE_B9_CF_83_CF_84_CE_B5_CF_81_CE_B9/5","name":"ΠΕΡΙΣΤΕΡΙ","mode":"subway","system":"Metro","status":"open","status_detail":"Open","status_source":"Published in current static GTFS","network":"Athens Metro","operator":"1","ref":"PER2","route_ref":"M2","platform_model":"Route-specific platform group"}},{"type":"Feature","geometry":{"type":"Point","coordinates":[23.709244,37.968624]},"properties":{"id":"gtfs/oasa-metro/_CF_80_CE_B5_CF_84_CF_81_CE_B1_CE_BB_CF_89_CE_BD_CE_B1/4","name":"ΠΕΤΡΑΛΩΝΑ","mode":"subway","system":"Metro","status":"open","status_detail":"Open","status_source":"Published in current static GTFS","network":"Athens Metro","operator":"1","ref":"PETR2","route_ref":"M1","platform_model":"Route-specific platform group"}},{"type":"Feature","geometry":{"type":"Point","coordinates":[23.750147,38.037108]},"properties":{"id":"gtfs/oasa-metro/_CF_80_CE_B5_CF_85_CE_BA_CE_B1_CE_BA_CE_B9_CE_B1/4","name":"ΠΕΥΚΑΚΙΑ","mode":"subway","system":"Metro","status":"open","status_detail":"Open","status_source":"Published in current static GTFS","network":"Athens Metro","operator":"1","ref":"PEFK2","route_ref":"M1","platform_model":"Route-specific platform group"}},{"type":"Feature","geometry":{"type":"Point","coordinates":[23.721118,37.992009]},"properties":{"id":"gtfs/oasa-metro/_CF_83_20_CE_BB_CE_B1_CF_81_CE_B9_CF_83_CE_B7_CF_82/5","name":"Σ. ΛΑΡΙΣΗΣ","mode":"subway","system":"Metro","status":"open","status_detail":"Open","status_source":"Published in current static GTFS","network":"Athens Metro","operator":"1","ref":"LAR2","route_ref":"M2","platform_model":"Route-specific platform group"}},{"type":"Feature","geometry":{"type":"Point","coordinates":[23.713596,38.002672]},"properties":{"id":"gtfs/oasa-metro/_CF_83_CE_B5_CF_80_CE_BF_CE_BB_CE_B9_CE_B1/5","name":"ΣΕΠΟΛΙΑ","mode":"subway","system":"Metro","status":"open","status_detail":"Open","status_source":"Published in current static GTFS","network":"Athens Metro","operator":"1","ref":"SEP2","route_ref":"M2","platform_model":"Route-specific platform group"}},{"type":"Feature","geometry":{"type":"Point","coordinates":[23.726479,37.964179]},"properties":{"id":"gtfs/oasa-metro/_CF_83_CF_85_CE_B3_CE_B3_CF_81_CE_BF_CF_85_20_CF_86_CE_B9_CE_BE/5","name":"ΣΥΓΓΡΟΥ-ΦΙΞ","mode":"subway","system":"Metro","status":"open","status_detail":"Open","status_source":"Published in current static GTFS","network":"Athens Metro","operator":"1","ref":"SYG2","route_ref":"M2","platform_model":"Route-specific platform group"}},{"type":"Feature","geometry":{"type":"Point","coordinates":[23.735739,37.975096]},"properties":{"id":"gtfs/oasa-metro/_CF_83_CF_85_CE_BD_CF_84_CE_B1_CE_B3_CE_BC_CE_B1/3","name":"ΣΥΝΤΑΓΜΑ","mode":"subway","system":"Metro","status":"open","status_detail":"Open","status_source":"Published in current static GTFS","network":"Athens Metro","operator":"1","ref":"SY32","route_ref":"M3","platform_model":"Route-specific platform group"}},{"type":"Feature","geometry":{"type":"Point","coordinates":[23.735739,37.975096]},"properties":{"id":"gtfs/oasa-metro/_CF_83_CF_85_CE_BD_CF_84_CE_B1_CE_B3_CE_BC_CE_B1/5","name":"ΣΥΝΤΑΓΜΑ","mode":"subway","system":"Metro","status":"open","status_detail":"Open","status_source":"Published in current static GTFS","network":"Athens Metro","operator":"1","ref":"SY22","route_ref":"M2","platform_model":"Route-specific platform group"}},{"type":"Feature","geometry":{"type":"Point","coordinates":[23.703388,37.962465]},"properties":{"id":"gtfs/oasa-metro/_CF_84_CE_B1_CF_85_CF_81_CE_BF_CF_82/4","name":"ΤΑΥΡΟΣ","mode":"subway","system":"Metro","status":"open","status_detail":"Open","status_source":"Published in current static GTFS","network":"Athens Metro","operator":"1","ref":"TAVR2","route_ref":"M1","platform_model":"Route-specific platform group"}},{"type":"Feature","geometry":{"type":"Point","coordinates":[23.665225,37.944995]},"properties":{"id":"gtfs/oasa-metro/_CF_86_CE_B1_CE_BB_CE_B7_CF_81_CE_BF/4","name":"ΦΑΛΗΡΟ","mode":"subway","system":"Metro","status":"open","status_detail":"Open","status_source":"Published in current static GTFS","network":"Athens Metro","operator":"1","ref":"FALI3","route_ref":"M1","platform_model":"Route-specific platform group"}},{"type":"Feature","geometry":{"type":"Point","coordinates":[23.821223,38.021516]},"properties":{"id":"gtfs/oasa-metro/_CF_87_CE_B1_CE_BB_CE_B1_CE_BD_CE_B4_CF_81_CE_B9/3","name":"ΧΑΛΑΝΔΡΙ","mode":"subway","system":"Metro","status":"open","status_detail":"Open","status_source":"Published in current static GTFS","network":"Athens Metro","operator":"1","ref":"HAL2","route_ref":"M3","platform_model":"Route-specific platform group"}},{"type":"Feature","geometry":{"type":"Point","coordinates":[23.794723,38.004519]},"properties":{"id":"gtfs/oasa-metro/_CF_87_CE_BF_CE_BB_CE_B1_CF_81_CE_B3_CE_BF_CF_82/3","name":"ΧΟΛΑΡΓΟΣ","mode":"subway","system":"Metro","status":"open","status_detail":"Open","status_source":"Published in current static GTFS","network":"Athens Metro","operator":"1","ref":"HOL2","route_ref":"M3","platform_model":"Route-specific platform group"}}]}
