{"type":"FeatureCollection","features":[{"type":"Feature","geometry":{"type":"Point","coordinates":[-84.387343,33.789248]},"properties":{"id":"gtfs/marta-rail/510001/north-south","name":"ARTS CENTER","mode":"subway","system":"Metro","status":"open","status_detail":"Open","status_source":"Published in current static GTFS","network":"MARTA Rail","operator":"MARTA","ref":"906369","route_ref":"GOLD; RED","platform_model":"Physical track-corridor platform group"}},{"type":"Feature","geometry":{"type":"Point","coordinates":[-84.417279,33.756478]},"properties":{"id":"gtfs/marta-rail/510002/east-west","name":"ASHBY","mode":"subway","system":"Metro","status":"open","status_detail":"Open","status_source":"Published in current static GTFS","network":"MARTA Rail","operator":"MARTA","ref":"908963","route_ref":"BLUE; GREEN","platform_model":"Physical track-corridor platform group"}},{"type":"Feature","geometry":{"type":"Point","coordinates":[-84.281976,33.775384]},"properties":{"id":"gtfs/marta-rail/510003/east-west","name":"AVONDALE","mode":"subway","system":"Metro","status":"open","status_detail":"Open","status_source":"Published in current static GTFS","network":"MARTA Rail","operator":"MARTA","ref":"908438","route_ref":"BLUE","platform_model":"Physical track-corridor platform group"}},{"type":"Feature","geometry":{"type":"Point","coordinates":[-84.428889,33.772298]},"properties":{"id":"gtfs/marta-rail/510004/east-west","name":"BANKHEAD","mode":"subway","system":"Metro","status":"open","status_detail":"Open","status_source":"Published in current static GTFS","network":"MARTA Rail","operator":"MARTA","ref":"907960","route_ref":"GREEN","platform_model":"Physical track-corridor platform group"}},{"type":"Feature","geometry":{"type":"Point","coordinates":[-84.339321,33.860159]},"properties":{"id":"gtfs/marta-rail/510005/north-south","name":"BROOKHAVEN-OGLETHORPE","mode":"subway","system":"Metro","status":"open","status_detail":"Open","status_source":"Published in current static GTFS","network":"MARTA Rail","operator":"MARTA","ref":"908186","route_ref":"GOLD","platform_model":"Physical track-corridor platform group"}},{"type":"Feature","geometry":{"type":"Point","coordinates":[-84.305959,33.887723]},"properties":{"id":"gtfs/marta-rail/510006/north-south","name":"CHAMBLEE","mode":"subway","system":"Metro","status":"open","status_detail":"Open","status_source":"Published in current static GTFS","network":"MARTA Rail","operator":"MARTA","ref":"908603","route_ref":"GOLD","platform_model":"Physical track-corridor platform group"}},{"type":"Feature","geometry":{"type":"Point","coordinates":[-84.387504,33.766174]},"properties":{"id":"gtfs/marta-rail/510007/north-south","name":"CIVIC CENTER","mode":"subway","system":"Metro","status":"open","status_detail":"Open","status_source":"Published in current static GTFS","network":"MARTA Rail","operator":"MARTA","ref":"908912","route_ref":"GOLD; RED","platform_model":"Physical track-corridor platform group"}},{"type":"Feature","geometry":{"type":"Point","coordinates":[-84.448634,33.65043]},"properties":{"id":"gtfs/marta-rail/510008/north-south","name":"COLLEGE PARK","mode":"subway","system":"Metro","status":"open","status_detail":"Open","status_source":"Published in current static GTFS","network":"MARTA Rail","operator":"MARTA","ref":"908599","route_ref":"GOLD; RED","platform_model":"Physical track-corridor platform group"}},{"type":"Feature","geometry":{"type":"Point","coordinates":[-84.295368,33.77469]},"properties":{"id":"gtfs/marta-rail/510009/east-west","name":"DECATUR","mode":"subway","system":"Metro","status":"open","status_detail":"Open","status_source":"Published in current static GTFS","network":"MARTA Rail","operator":"MARTA","ref":"908700","route_ref":"BLUE","platform_model":"Physical track-corridor platform group"}},{"type":"Feature","geometry":{"type":"Point","coordinates":[-84.280888,33.902599]},"properties":{"id":"gtfs/marta-rail/510010/north-south","name":"DORAVILLE","mode":"subway","system":"Metro","status":"open","status_detail":"Open","status_source":"Published in current static GTFS","network":"MARTA Rail","operator":"MARTA","ref":"908845","route_ref":"GOLD","platform_model":"Physical track-corridor platform group"}},{"type":"Feature","geometry":{"type":"Point","coordinates":[-84.34424,33.920996]},"properties":{"id":"gtfs/marta-rail/510011/north-south","name":"DUNWOODY","mode":"subway","system":"Metro","status":"open","status_detail":"Open","status_source":"Published in current static GTFS","network":"MARTA Rail","operator":"MARTA","ref":"908047","route_ref":"RED","platform_model":"Physical track-corridor platform group"}},{"type":"Feature","geometry":{"type":"Point","coordinates":[-84.313182,33.765219]},"properties":{"id":"gtfs/marta-rail/510012/east-west","name":"EAST LAKE","mode":"subway","system":"Metro","status":"open","status_detail":"Open","status_source":"Published in current static GTFS","network":"MARTA Rail","operator":"MARTA","ref":"908566","route_ref":"BLUE","platform_model":"Physical track-corridor platform group"}},{"type":"Feature","geometry":{"type":"Point","coordinates":[-84.440623,33.677205]},"properties":{"id":"gtfs/marta-rail/510013/north-south","name":"EAST POINT","mode":"subway","system":"Metro","status":"open","status_detail":"Open","status_source":"Published in current static GTFS","network":"MARTA Rail","operator":"MARTA","ref":"908628","route_ref":"GOLD; RED","platform_model":"Physical track-corridor platform group"}},{"type":"Feature","geometry":{"type":"Point","coordinates":[-84.340641,33.761834]},"properties":{"id":"gtfs/marta-rail/510014/east-west","name":"EDGEWOOD-CANDLER PARK","mode":"subway","system":"Metro","status":"open","status_detail":"Open","status_source":"Published in current static GTFS","network":"MARTA Rail","operator":"MARTA","ref":"908699","route_ref":"BLUE; GREEN","platform_model":"Physical track-corridor platform group"}},{"type":"Feature","geometry":{"type":"Point","coordinates":[-84.391637,33.75398]},"properties":{"id":"gtfs/marta-rail/510015/east-west","name":"FIVE POINTS","mode":"subway","system":"Metro","status":"open","status_detail":"Open","status_source":"Published in current static GTFS","network":"MARTA Rail","operator":"MARTA","ref":"908981","route_ref":"BLUE; GREEN","platform_model":"Physical track-corridor platform group"}},{"type":"Feature","geometry":{"type":"Point","coordinates":[-84.391506,33.753975]},"properties":{"id":"gtfs/marta-rail/510015/north-south","name":"FIVE POINTS","mode":"subway","system":"Metro","status":"open","status_detail":"Open","status_source":"Published in current static GTFS","network":"MARTA Rail","operator":"MARTA","ref":"908986","route_ref":"GOLD; RED","platform_model":"Physical track-corridor platform group"}},{"type":"Feature","geometry":{"type":"Point","coordinates":[-84.385898,33.750152]},"properties":{"id":"gtfs/marta-rail/510016/east-west","name":"GEORGIA STATE","mode":"subway","system":"Metro","status":"open","status_detail":"Open","status_source":"Published in current static GTFS","network":"MARTA Rail","operator":"MARTA","ref":"908696","route_ref":"BLUE; GREEN","platform_model":"Physical track-corridor platform group"}},{"type":"Feature","geometry":{"type":"Point","coordinates":[-84.469563,33.754535]},"properties":{"id":"gtfs/marta-rail/510017/east-west","name":"HAMILTON E HOLMES","mode":"subway","system":"Metro","status":"open","status_detail":"Open","status_source":"Published in current static GTFS","network":"MARTA Rail","operator":"MARTA","ref":"907933","route_ref":"BLUE","platform_model":"Physical track-corridor platform group"}},{"type":"Feature","geometry":{"type":"Point","coordinates":[-84.22939,33.769875]},"properties":{"id":"gtfs/marta-rail/510018/east-west","name":"INDIAN CREEK","mode":"subway","system":"Metro","status":"open","status_detail":"Open","status_source":"Published in current static GTFS","network":"MARTA Rail","operator":"MARTA","ref":"908515","route_ref":"BLUE","platform_model":"Physical track-corridor platform group"}},{"type":"Feature","geometry":{"type":"Point","coordinates":[-84.352914,33.757339]},"properties":{"id":"gtfs/marta-rail/510019/east-west","name":"INMAN PARK-REYNOLDSTOWN","mode":"subway","system":"Metro","status":"open","status_detail":"Open","status_source":"Published in current static GTFS","network":"MARTA Rail","operator":"MARTA","ref":"908437","route_ref":"BLUE; GREEN","platform_model":"Physical track-corridor platform group"}},{"type":"Feature","geometry":{"type":"Point","coordinates":[-84.251879,33.772706]},"properties":{"id":"gtfs/marta-rail/510020/east-west","name":"KENSINGTON","mode":"subway","system":"Metro","status":"open","status_detail":"Open","status_source":"Published in current static GTFS","network":"MARTA Rail","operator":"MARTA","ref":"908634","route_ref":"BLUE","platform_model":"Physical track-corridor platform group"}},{"type":"Feature","geometry":{"type":"Point","coordinates":[-84.375833,33.749902]},"properties":{"id":"gtfs/marta-rail/510021/east-west","name":"KING MEMORIAL","mode":"subway","system":"Metro","status":"open","status_detail":"Open","status_source":"Published in current static GTFS","network":"MARTA Rail","operator":"MARTA","ref":"908436","route_ref":"BLUE; GREEN","platform_model":"Physical track-corridor platform group"}},{"type":"Feature","geometry":{"type":"Point","coordinates":[-84.428817,33.700589]},"properties":{"id":"gtfs/marta-rail/510022/north-south","name":"LAKEWOOD-FT MCPHERSON","mode":"subway","system":"Metro","status":"open","status_detail":"Open","status_source":"Published in current static GTFS","network":"MARTA Rail","operator":"MARTA","ref":"908629","route_ref":"GOLD; RED","platform_model":"Physical track-corridor platform group"}},{"type":"Feature","geometry":{"type":"Point","coordinates":[-84.358311,33.845348]},"properties":{"id":"gtfs/marta-rail/510023/north-south","name":"LENOX","mode":"subway","system":"Metro","status":"open","status_detail":"Open","status_source":"Published in current static GTFS","network":"MARTA Rail","operator":"MARTA","ref":"906827","route_ref":"GOLD","platform_model":"Physical track-corridor platform group"}},{"type":"Feature","geometry":{"type":"Point","coordinates":[-84.369329,33.823456]},"properties":{"id":"gtfs/marta-rail/510024/north-south","name":"LINDBERGH CENTER","mode":"subway","system":"Metro","status":"open","status_detail":"Open","status_source":"Published in current static GTFS","network":"MARTA Rail","operator":"MARTA","ref":"908055","route_ref":"GOLD; RED","platform_model":"Physical track-corridor platform group"}},{"type":"Feature","geometry":{"type":"Point","coordinates":[-84.351824,33.910748]},"properties":{"id":"gtfs/marta-rail/510025/north-south","name":"MEDICAL CENTER","mode":"subway","system":"Metro","status":"open","status_detail":"Open","status_source":"Published in current static GTFS","network":"MARTA Rail","operator":"MARTA","ref":"908885","route_ref":"RED","platform_model":"Physical track-corridor platform group"}},{"type":"Feature","geometry":{"type":"Point","coordinates":[-84.386347,33.781301]},"properties":{"id":"gtfs/marta-rail/510026/north-south","name":"MIDTOWN","mode":"subway","system":"Metro","status":"open","status_detail":"Open","status_source":"Published in current static GTFS","network":"MARTA Rail","operator":"MARTA","ref":"908375","route_ref":"GOLD; RED","platform_model":"Physical track-corridor platform group"}},{"type":"Feature","geometry":{"type":"Point","coordinates":[-84.387231,33.771607]},"properties":{"id":"gtfs/marta-rail/510027/north-south","name":"NORTH AVENUE","mode":"subway","system":"Metro","status":"open","status_detail":"Open","status_source":"Published in current static GTFS","network":"MARTA Rail","operator":"MARTA","ref":"907914","route_ref":"GOLD; RED","platform_model":"Physical track-corridor platform group"}},{"type":"Feature","geometry":{"type":"Point","coordinates":[-84.357264,33.944664]},"properties":{"id":"gtfs/marta-rail/510028/north-south","name":"NORTH SPRINGS","mode":"subway","system":"Metro","status":"open","status_detail":"Open","status_source":"Published in current static GTFS","network":"MARTA Rail","operator":"MARTA","ref":"907766","route_ref":"RED","platform_model":"Physical track-corridor platform group"}},{"type":"Feature","geometry":{"type":"Point","coordinates":[-84.425084,33.717139]},"properties":{"id":"gtfs/marta-rail/510029/north-south","name":"OAKLAND CITY","mode":"subway","system":"Metro","status":"open","status_detail":"Open","status_source":"Published in current static GTFS","network":"MARTA Rail","operator":"MARTA","ref":"908301","route_ref":"GOLD; RED","platform_model":"Physical track-corridor platform group"}},{"type":"Feature","geometry":{"type":"Point","coordinates":[-84.351014,33.931618]},"properties":{"id":"gtfs/marta-rail/510030/north-south","name":"SANDY SPRINGS","mode":"subway","system":"Metro","status":"open","status_detail":"Open","status_source":"Published in current static GTFS","network":"MARTA Rail","operator":"MARTA","ref":"907845","route_ref":"RED","platform_model":"Physical track-corridor platform group"}},{"type":"Feature","geometry":{"type":"Point","coordinates":[-84.403962,33.756613]},"properties":{"id":"gtfs/marta-rail/510032/east-west","name":"VINE CITY","mode":"subway","system":"Metro","status":"open","status_detail":"Open","status_source":"Published in current static GTFS","network":"MARTA Rail","operator":"MARTA","ref":"908958","route_ref":"BLUE; GREEN","platform_model":"Physical track-corridor platform group"}},{"type":"Feature","geometry":{"type":"Point","coordinates":[-84.413658,33.736135]},"properties":{"id":"gtfs/marta-rail/510033/north-south","name":"WEST END","mode":"subway","system":"Metro","status":"open","status_detail":"Open","status_source":"Published in current static GTFS","network":"MARTA Rail","operator":"MARTA","ref":"908704","route_ref":"GOLD; RED","platform_model":"Physical track-corridor platform group"}},{"type":"Feature","geometry":{"type":"Point","coordinates":[-84.445448,33.753287]},"properties":{"id":"gtfs/marta-rail/510034/east-west","name":"WEST LAKE","mode":"subway","system":"Metro","status":"open","status_detail":"Open","status_source":"Published in current static GTFS","network":"MARTA Rail","operator":"MARTA","ref":"908023","route_ref":"BLUE","platform_model":"Physical track-corridor platform group"}},{"type":"Feature","geometry":{"type":"Point","coordinates":[-84.367672,33.847877]},"properties":{"id":"gtfs/marta-rail/510036/north-south","name":"BUCKHEAD","mode":"subway","system":"Metro","status":"open","status_detail":"Open","status_source":"Published in current static GTFS","network":"MARTA Rail","operator":"MARTA","ref":"908639","route_ref":"RED","platform_model":"Physical track-corridor platform group"}},{"type":"Feature","geometry":{"type":"Point","coordinates":[-84.446198,33.640559]},"properties":{"id":"gtfs/marta-rail/510037/north-south","name":"AIRPORT","mode":"subway","system":"Metro","status":"open","status_detail":"Open","status_source":"Published in current static GTFS","network":"MARTA Rail","operator":"MARTA","ref":"908695","route_ref":"GOLD; RED","platform_model":"Physical track-corridor platform group"}},{"type":"Feature","geometry":{"type":"Point","coordinates":[-84.395643,33.748817]},"properties":{"id":"gtfs/marta-rail/510038/north-south","name":"GARNETT","mode":"subway","system":"Metro","status":"open","status_detail":"Open","status_source":"Published in current static GTFS","network":"MARTA Rail","operator":"MARTA","ref":"908600","route_ref":"GOLD; RED","platform_model":"Physical track-corridor platform group"}},{"type":"Feature","geometry":{"type":"Point","coordinates":[-84.397253,33.756183]},"properties":{"id":"gtfs/marta-rail/510039/east-west","name":"SEC DISTRICT","mode":"subway","system":"Metro","status":"open","status_detail":"Open","status_source":"Published in current static GTFS","network":"MARTA Rail","operator":"MARTA","ref":"908435","route_ref":"BLUE; GREEN","platform_model":"Physical track-corridor platform group"}},{"type":"Feature","geometry":{"type":"Point","coordinates":[-84.387596,33.758136]},"properties":{"id":"gtfs/marta-rail/510040/north-south","name":"PEACHTREE CENTER","mode":"subway","system":"Metro","status":"open","status_detail":"Open","status_source":"Published in current static GTFS","network":"MARTA Rail","operator":"MARTA","ref":"908601","route_ref":"GOLD; RED","platform_model":"Physical track-corridor platform group"}}]}
