{"type":"FeatureCollection","features":[{"type":"Feature","geometry":{"type":"Point","coordinates":[103.7708,1.38455]},"properties":{"id":"gtfs/singapore-rail/BP10/BP","name":"Fajar","mode":"subway","system":"Metro","status":"open","status_detail":"Open","status_source":"Published in current static GTFS","network":"Singapore MRT and LRT","operator":"SMRT","ref":"BP10","route_ref":"BP","platform_model":"Route-specific platform group"}},{"type":"Feature","geometry":{"type":"Point","coordinates":[103.769593,1.387792]},"properties":{"id":"gtfs/singapore-rail/BP11/BP","name":"Segar","mode":"subway","system":"Metro","status":"open","status_detail":"Open","status_source":"Published in current static GTFS","network":"Singapore MRT and LRT","operator":"SMRT","ref":"BP11","route_ref":"BP","platform_model":"Route-specific platform group"}},{"type":"Feature","geometry":{"type":"Point","coordinates":[103.764515,1.386683]},"properties":{"id":"gtfs/singapore-rail/BP12/BP","name":"Jelapang","mode":"subway","system":"Metro","status":"open","status_detail":"Open","status_source":"Published in current static GTFS","network":"Singapore MRT and LRT","operator":"SMRT","ref":"BP12","route_ref":"BP","platform_model":"Route-specific platform group"}},{"type":"Feature","geometry":{"type":"Point","coordinates":[103.762382,1.382678]},"properties":{"id":"gtfs/singapore-rail/BP13/BP","name":"Senja","mode":"subway","system":"Metro","status":"open","status_detail":"Open","status_source":"Published in current static GTFS","network":"Singapore MRT and LRT","operator":"SMRT","ref":"BP13","route_ref":"BP","platform_model":"Route-specific platform group"}},{"type":"Feature","geometry":{"type":"Point","coordinates":[103.745285,1.38026]},"properties":{"id":"gtfs/singapore-rail/BP2/BP","name":"South View","mode":"subway","system":"Metro","status":"open","status_detail":"Open","status_source":"Published in current static GTFS","network":"Singapore MRT and LRT","operator":"SMRT","ref":"BP2","route_ref":"BP","platform_model":"Route-specific platform group"}},{"type":"Feature","geometry":{"type":"Point","coordinates":[103.74903,1.378599]},"properties":{"id":"gtfs/singapore-rail/BP3/BP","name":"Keat Hong","mode":"subway","system":"Metro","status":"open","status_detail":"Open","status_source":"Published in current static GTFS","network":"Singapore MRT and LRT","operator":"SMRT","ref":"BP3","route_ref":"BP","platform_model":"Route-specific platform group"}},{"type":"Feature","geometry":{"type":"Point","coordinates":[103.753647,1.37667]},"properties":{"id":"gtfs/singapore-rail/BP4/BP","name":"Teck Whye","mode":"subway","system":"Metro","status":"open","status_detail":"Open","status_source":"Published in current static GTFS","network":"Singapore MRT and LRT","operator":"SMRT","ref":"BP4","route_ref":"BP","platform_model":"Route-specific platform group"}},{"type":"Feature","geometry":{"type":"Point","coordinates":[103.758008,1.378616]},"properties":{"id":"gtfs/singapore-rail/BP5/BP","name":"Phoenix","mode":"subway","system":"Metro","status":"open","status_detail":"Open","status_source":"Published in current static GTFS","network":"Singapore MRT and LRT","operator":"SMRT","ref":"BP5","route_ref":"BP","platform_model":"Route-specific platform group"}},{"type":"Feature","geometry":{"type":"Point","coordinates":[103.766634,1.377756]},"properties":{"id":"gtfs/singapore-rail/BP7/BP","name":"Petir","mode":"subway","system":"Metro","status":"open","status_detail":"Open","status_source":"Published in current static GTFS","network":"Singapore MRT and LRT","operator":"SMRT","ref":"BP7","route_ref":"BP","platform_model":"Route-specific platform group"}},{"type":"Feature","geometry":{"type":"Point","coordinates":[103.771259,1.376184]},"properties":{"id":"gtfs/singapore-rail/BP8/BP","name":"Pending","mode":"subway","system":"Metro","status":"open","status_detail":"Open","status_source":"Published in current static GTFS","network":"Singapore MRT and LRT","operator":"SMRT","ref":"BP8","route_ref":"BP","platform_model":"Route-specific platform group"}},{"type":"Feature","geometry":{"type":"Point","coordinates":[103.772644,1.380055]},"properties":{"id":"gtfs/singapore-rail/BP9/BP","name":"Bangkit","mode":"subway","system":"Metro","status":"open","status_detail":"Open","status_source":"Published in current static GTFS","network":"Singapore MRT and LRT","operator":"SMRT","ref":"BP9","route_ref":"BP","platform_model":"Route-specific platform group"}},{"type":"Feature","geometry":{"type":"Point","coordinates":[103.890102,1.326728]},"properties":{"id":"gtfs/singapore-rail/CC10-DT26/CC","name":"MacPherson","mode":"subway","system":"Metro","status":"open","status_detail":"Open","status_source":"Published in current static GTFS","network":"Singapore MRT and LRT","operator":"SMRT","ref":"CC10-DT26","route_ref":"CC","platform_model":"Route-specific platform group"}},{"type":"Feature","geometry":{"type":"Point","coordinates":[103.890102,1.326728]},"properties":{"id":"gtfs/singapore-rail/CC10-DT26/DT","name":"MacPherson","mode":"subway","system":"Metro","status":"open","status_detail":"Open","status_source":"Published in current static GTFS","network":"Singapore MRT and LRT","operator":"SBST","ref":"CC10-DT26","route_ref":"DT","platform_model":"Route-specific platform group"}},{"type":"Feature","geometry":{"type":"Point","coordinates":[103.88815,1.334866]},"properties":{"id":"gtfs/singapore-rail/CC11/CC","name":"Tai Seng","mode":"subway","system":"Metro","status":"open","status_detail":"Open","status_source":"Published in current static GTFS","network":"Singapore MRT and LRT","operator":"SMRT","ref":"CC11","route_ref":"CC","platform_model":"Route-specific platform group"}},{"type":"Feature","geometry":{"type":"Point","coordinates":[103.880449,1.342438]},"properties":{"id":"gtfs/singapore-rail/CC12/CC","name":"Bartley","mode":"subway","system":"Metro","status":"open","status_detail":"Open","status_source":"Published in current static GTFS","network":"Singapore MRT and LRT","operator":"SMRT","ref":"CC12","route_ref":"CC","platform_model":"Route-specific platform group"}},{"type":"Feature","geometry":{"type":"Point","coordinates":[103.863395,1.351488]},"properties":{"id":"gtfs/singapore-rail/CC14/CC","name":"Lorong Chuan","mode":"subway","system":"Metro","status":"open","status_detail":"Open","status_source":"Published in current static GTFS","network":"Singapore MRT and LRT","operator":"SMRT","ref":"CC14","route_ref":"CC","platform_model":"Route-specific platform group"}},{"type":"Feature","geometry":{"type":"Point","coordinates":[103.839238,1.348614]},"properties":{"id":"gtfs/singapore-rail/CC16/CC","name":"Marymount","mode":"subway","system":"Metro","status":"open","status_detail":"Open","status_source":"Published in current static GTFS","network":"Singapore MRT and LRT","operator":"SMRT","ref":"CC16","route_ref":"CC","platform_model":"Route-specific platform group"}},{"type":"Feature","geometry":{"type":"Point","coordinates":[103.839991,1.33768]},"properties":{"id":"gtfs/singapore-rail/CC17-TE9/CC","name":"Caldecott","mode":"subway","system":"Metro","status":"open","status_detail":"Open","status_source":"Published in current static GTFS","network":"Singapore MRT and LRT","operator":"SMRT","ref":"CC17-TE9","route_ref":"CC","platform_model":"Route-specific platform group"}},{"type":"Feature","geometry":{"type":"Point","coordinates":[103.839991,1.33768]},"properties":{"id":"gtfs/singapore-rail/CC17-TE9/TE","name":"Caldecott","mode":"subway","system":"Metro","status":"open","status_detail":"Open","status_source":"Published in current static GTFS","network":"Singapore MRT and LRT","operator":"SMRT","ref":"CC17-TE9","route_ref":"TE","platform_model":"Route-specific platform group"}},{"type":"Feature","geometry":{"type":"Point","coordinates":[103.815747,1.322559]},"properties":{"id":"gtfs/singapore-rail/CC19-DT9/CC","name":"Botanic Gardens","mode":"subway","system":"Metro","status":"open","status_detail":"Open","status_source":"Published in current static GTFS","network":"Singapore MRT and LRT","operator":"SMRT","ref":"CC19-DT9","route_ref":"CC","platform_model":"Route-specific platform group"}},{"type":"Feature","geometry":{"type":"Point","coordinates":[103.815747,1.322559]},"properties":{"id":"gtfs/singapore-rail/CC19-DT9/DT","name":"Botanic Gardens","mode":"subway","system":"Metro","status":"open","status_detail":"Open","status_source":"Published in current static GTFS","network":"Singapore MRT and LRT","operator":"SBST","ref":"CC19-DT9","route_ref":"DT","platform_model":"Route-specific platform group"}},{"type":"Feature","geometry":{"type":"Point","coordinates":[103.85055,1.296896]},"properties":{"id":"gtfs/singapore-rail/CC2/CC","name":"Bras Basah","mode":"subway","system":"Metro","status":"open","status_detail":"Open","status_source":"Published in current static GTFS","network":"Singapore MRT and LRT","operator":"SMRT","ref":"CC2","route_ref":"CC","platform_model":"Route-specific platform group"}},{"type":"Feature","geometry":{"type":"Point","coordinates":[103.807785,1.317628]},"properties":{"id":"gtfs/singapore-rail/CC20/CC","name":"Farrer Road","mode":"subway","system":"Metro","status":"open","status_detail":"Open","status_source":"Published in current static GTFS","network":"Singapore MRT and LRT","operator":"SMRT","ref":"CC20","route_ref":"CC","platform_model":"Route-specific platform group"}},{"type":"Feature","geometry":{"type":"Point","coordinates":[103.795744,1.312117]},"properties":{"id":"gtfs/singapore-rail/CC21/CC","name":"Holland Village","mode":"subway","system":"Metro","status":"open","status_detail":"Open","status_source":"Published in current static GTFS","network":"Singapore MRT and LRT","operator":"SMRT","ref":"CC21","route_ref":"CC","platform_model":"Route-specific platform group"}},{"type":"Feature","geometry":{"type":"Point","coordinates":[103.787241,1.299607]},"properties":{"id":"gtfs/singapore-rail/CC23/CC","name":"one-north","mode":"subway","system":"Metro","status":"open","status_detail":"Open","status_source":"Published in current static GTFS","network":"Singapore MRT and LRT","operator":"SMRT","ref":"CC23","route_ref":"CC","platform_model":"Route-specific platform group"}},{"type":"Feature","geometry":{"type":"Point","coordinates":[103.784413,1.293301]},"properties":{"id":"gtfs/singapore-rail/CC24/CC","name":"Kent Ridge","mode":"subway","system":"Metro","status":"open","status_detail":"Open","status_source":"Published in current static GTFS","network":"Singapore MRT and LRT","operator":"SMRT","ref":"CC24","route_ref":"CC","platform_model":"Route-specific platform group"}},{"type":"Feature","geometry":{"type":"Point","coordinates":[103.781772,1.282654]},"properties":{"id":"gtfs/singapore-rail/CC25/CC","name":"Haw Par Villa","mode":"subway","system":"Metro","status":"open","status_detail":"Open","status_source":"Published in current static GTFS","network":"Singapore MRT and LRT","operator":"SMRT","ref":"CC25","route_ref":"CC","platform_model":"Route-specific platform group"}},{"type":"Feature","geometry":{"type":"Point","coordinates":[103.791614,1.276177]},"properties":{"id":"gtfs/singapore-rail/CC26/CC","name":"Pasir Panjang","mode":"subway","system":"Metro","status":"open","status_detail":"Open","status_source":"Published in current static GTFS","network":"Singapore MRT and LRT","operator":"SMRT","ref":"CC26","route_ref":"CC","platform_model":"Route-specific platform group"}},{"type":"Feature","geometry":{"type":"Point","coordinates":[103.802782,1.272328]},"properties":{"id":"gtfs/singapore-rail/CC27/CC","name":"Labrador Park","mode":"subway","system":"Metro","status":"open","status_detail":"Open","status_source":"Published in current static GTFS","network":"Singapore MRT and LRT","operator":"SMRT","ref":"CC27","route_ref":"CC","platform_model":"Route-specific platform group"}},{"type":"Feature","geometry":{"type":"Point","coordinates":[103.809863,1.270586]},"properties":{"id":"gtfs/singapore-rail/CC28/CC","name":"Telok Blangah","mode":"subway","system":"Metro","status":"open","status_detail":"Open","status_source":"Published in current static GTFS","network":"Singapore MRT and LRT","operator":"SMRT","ref":"CC28","route_ref":"CC","platform_model":"Route-specific platform group"}},{"type":"Feature","geometry":{"type":"Point","coordinates":[103.855974,1.293258]},"properties":{"id":"gtfs/singapore-rail/CC3/CC","name":"Esplanade","mode":"subway","system":"Metro","status":"open","status_detail":"Open","status_source":"Published in current static GTFS","network":"Singapore MRT and LRT","operator":"SMRT","ref":"CC3","route_ref":"CC","platform_model":"Route-specific platform group"}},{"type":"Feature","geometry":{"type":"Point","coordinates":[103.83071,1.27046]},"properties":{"id":"gtfs/singapore-rail/CC30/CC","name":"Keppel","mode":"subway","system":"Metro","status":"open","status_detail":"Open","status_source":"Published in current static GTFS","network":"Singapore MRT and LRT","operator":"SMRT","ref":"CC30","route_ref":"CC","platform_model":"Route-specific platform group"}},{"type":"Feature","geometry":{"type":"Point","coordinates":[103.836658,1.272814]},"properties":{"id":"gtfs/singapore-rail/CC31/CC","name":"Cantonment","mode":"subway","system":"Metro","status":"open","status_detail":"Open","status_source":"Published in current static GTFS","network":"Singapore MRT and LRT","operator":"SMRT","ref":"CC31","route_ref":"CC","platform_model":"Route-specific platform group"}},{"type":"Feature","geometry":{"type":"Point","coordinates":[103.8471,1.27329]},"properties":{"id":"gtfs/singapore-rail/CC32/CC","name":"Prince Edward Road","mode":"subway","system":"Metro","status":"open","status_detail":"Open","status_source":"Published in current static GTFS","network":"Singapore MRT and LRT","operator":"SMRT","ref":"CC32","route_ref":"CC","platform_model":"Route-specific platform group"}},{"type":"Feature","geometry":{"type":"Point","coordinates":[103.860151,1.293854]},"properties":{"id":"gtfs/singapore-rail/CC4-DT15/CC","name":"Promenade","mode":"subway","system":"Metro","status":"open","status_detail":"Open","status_source":"Published in current static GTFS","network":"Singapore MRT and LRT","operator":"SMRT","ref":"CC4-DT15","route_ref":"CC","platform_model":"Route-specific platform group"}},{"type":"Feature","geometry":{"type":"Point","coordinates":[103.860151,1.293854]},"properties":{"id":"gtfs/singapore-rail/CC4-DT15/CE","name":"Promenade","mode":"subway","system":"Metro","status":"open","status_detail":"Open","status_source":"Published in current static GTFS","network":"Singapore MRT and LRT","operator":"LTA","ref":"CC4-DT15","route_ref":"CE","platform_model":"Route-specific platform group"}},{"type":"Feature","geometry":{"type":"Point","coordinates":[103.860151,1.293854]},"properties":{"id":"gtfs/singapore-rail/CC4-DT15/DT","name":"Promenade","mode":"subway","system":"Metro","status":"open","status_detail":"Open","status_source":"Published in current static GTFS","network":"Singapore MRT and LRT","operator":"SBST","ref":"CC4-DT15","route_ref":"DT","platform_model":"Route-specific platform group"}},{"type":"Feature","geometry":{"type":"Point","coordinates":[103.8635,1.299671]},"properties":{"id":"gtfs/singapore-rail/CC5/CC","name":"Nicoll Highway","mode":"subway","system":"Metro","status":"open","status_detail":"Open","status_source":"Published in current static GTFS","network":"Singapore MRT and LRT","operator":"SMRT","ref":"CC5","route_ref":"CC","platform_model":"Route-specific platform group"}},{"type":"Feature","geometry":{"type":"Point","coordinates":[103.87539,1.302946]},"properties":{"id":"gtfs/singapore-rail/CC6/CC","name":"Stadium","mode":"subway","system":"Metro","status":"open","status_detail":"Open","status_source":"Published in current static GTFS","network":"Singapore MRT and LRT","operator":"SMRT","ref":"CC6","route_ref":"CC","platform_model":"Route-specific platform group"}},{"type":"Feature","geometry":{"type":"Point","coordinates":[103.882496,1.306249]},"properties":{"id":"gtfs/singapore-rail/CC7/CC","name":"Mountbatten","mode":"subway","system":"Metro","status":"open","status_detail":"Open","status_source":"Published in current static GTFS","network":"Singapore MRT and LRT","operator":"SMRT","ref":"CC7","route_ref":"CC","platform_model":"Route-specific platform group"}},{"type":"Feature","geometry":{"type":"Point","coordinates":[103.88832,1.308438]},"properties":{"id":"gtfs/singapore-rail/CC8/CC","name":"Dakota","mode":"subway","system":"Metro","status":"open","status_detail":"Open","status_source":"Published in current static GTFS","network":"Singapore MRT and LRT","operator":"SMRT","ref":"CC8","route_ref":"CC","platform_model":"Route-specific platform group"}},{"type":"Feature","geometry":{"type":"Point","coordinates":[103.988565,1.357338]},"properties":{"id":"gtfs/singapore-rail/CG2/CG","name":"Changi Airport","mode":"subway","system":"Metro","status":"open","status_detail":"Open","status_source":"Published in current static GTFS","network":"Singapore MRT and LRT","operator":"LTA","ref":"CG2","route_ref":"CG","platform_model":"Route-specific platform group"}},{"type":"Feature","geometry":{"type":"Point","coordinates":[103.762138,1.378296]},"properties":{"id":"gtfs/singapore-rail/DT1-BP6/BP","name":"Bukit Panjang","mode":"subway","system":"Metro","status":"open","status_detail":"Open","status_source":"Published in current static GTFS","network":"Singapore MRT and LRT","operator":"SMRT","ref":"DT1-BP6","route_ref":"BP","platform_model":"Route-specific platform group"}},{"type":"Feature","geometry":{"type":"Point","coordinates":[103.762138,1.378296]},"properties":{"id":"gtfs/singapore-rail/DT1-BP6/DT","name":"Bukit Panjang","mode":"subway","system":"Metro","status":"open","status_detail":"Open","status_source":"Published in current static GTFS","network":"Singapore MRT and LRT","operator":"SBST","ref":"DT1-BP6","route_ref":"DT","platform_model":"Route-specific platform group"}},{"type":"Feature","geometry":{"type":"Point","coordinates":[103.825461,1.320192]},"properties":{"id":"gtfs/singapore-rail/DT10-TE11/DT","name":"Stevens","mode":"subway","system":"Metro","status":"open","status_detail":"Open","status_source":"Published in current static GTFS","network":"Singapore MRT and LRT","operator":"SBST","ref":"DT10-TE11","route_ref":"DT","platform_model":"Route-specific platform group"}},{"type":"Feature","geometry":{"type":"Point","coordinates":[103.825461,1.320192]},"properties":{"id":"gtfs/singapore-rail/DT10-TE11/TE","name":"Stevens","mode":"subway","system":"Metro","status":"open","status_detail":"Open","status_source":"Published in current static GTFS","network":"Singapore MRT and LRT","operator":"SMRT","ref":"DT10-TE11","route_ref":"TE","platform_model":"Route-specific platform group"}},{"type":"Feature","geometry":{"type":"Point","coordinates":[103.852634,1.303951]},"properties":{"id":"gtfs/singapore-rail/DT13/DT","name":"Rochor","mode":"subway","system":"Metro","status":"open","status_detail":"Open","status_source":"Published in current static GTFS","network":"Singapore MRT and LRT","operator":"SBST","ref":"DT13","route_ref":"DT","platform_model":"Route-specific platform group"}},{"type":"Feature","geometry":{"type":"Point","coordinates":[103.85973,1.282535]},"properties":{"id":"gtfs/singapore-rail/DT16-CE1/CC","name":"Bayfront","mode":"subway","system":"Metro","status":"open","status_detail":"Open","status_source":"Published in current static GTFS","network":"Singapore MRT and LRT","operator":"SMRT","ref":"DT16-CE1","route_ref":"CC","platform_model":"Route-specific platform group"}},{"type":"Feature","geometry":{"type":"Point","coordinates":[103.85973,1.282535]},"properties":{"id":"gtfs/singapore-rail/DT16-CE1/CE","name":"Bayfront","mode":"subway","system":"Metro","status":"open","status_detail":"Open","status_source":"Published in current static GTFS","network":"Singapore MRT and LRT","operator":"LTA","ref":"DT16-CE1","route_ref":"CE","platform_model":"Route-specific platform group"}},{"type":"Feature","geometry":{"type":"Point","coordinates":[103.85973,1.282535]},"properties":{"id":"gtfs/singapore-rail/DT16-CE1/DT","name":"Bayfront","mode":"subway","system":"Metro","status":"open","status_detail":"Open","status_source":"Published in current static GTFS","network":"Singapore MRT and LRT","operator":"SBST","ref":"DT16-CE1","route_ref":"DT","platform_model":"Route-specific platform group"}},{"type":"Feature","geometry":{"type":"Point","coordinates":[103.853345,1.279191]},"properties":{"id":"gtfs/singapore-rail/DT17/DT","name":"Downtown","mode":"subway","system":"Metro","status":"open","status_detail":"Open","status_source":"Published in current static GTFS","network":"Singapore MRT and LRT","operator":"SBST","ref":"DT17","route_ref":"DT","platform_model":"Route-specific platform group"}},{"type":"Feature","geometry":{"type":"Point","coordinates":[103.848744,1.282123]},"properties":{"id":"gtfs/singapore-rail/DT18/DT","name":"Telok Ayer","mode":"subway","system":"Metro","status":"open","status_detail":"Open","status_source":"Published in current static GTFS","network":"Singapore MRT and LRT","operator":"SBST","ref":"DT18","route_ref":"DT","platform_model":"Route-specific platform group"}},{"type":"Feature","geometry":{"type":"Point","coordinates":[103.764481,1.369661]},"properties":{"id":"gtfs/singapore-rail/DT2/DT","name":"Cashew","mode":"subway","system":"Metro","status":"open","status_detail":"Open","status_source":"Published in current static GTFS","network":"Singapore MRT and LRT","operator":"SBST","ref":"DT2","route_ref":"DT","platform_model":"Route-specific platform group"}},{"type":"Feature","geometry":{"type":"Point","coordinates":[103.844157,1.292393]},"properties":{"id":"gtfs/singapore-rail/DT20/DT","name":"Fort Canning","mode":"subway","system":"Metro","status":"open","status_detail":"Open","status_source":"Published in current static GTFS","network":"Singapore MRT and LRT","operator":"SBST","ref":"DT20","route_ref":"DT","platform_model":"Route-specific platform group"}},{"type":"Feature","geometry":{"type":"Point","coordinates":[103.850369,1.298861]},"properties":{"id":"gtfs/singapore-rail/DT21/DT","name":"Bencoolen","mode":"subway","system":"Metro","status":"open","status_detail":"Open","status_source":"Published in current static GTFS","network":"Singapore MRT and LRT","operator":"SBST","ref":"DT21","route_ref":"DT","platform_model":"Route-specific platform group"}},{"type":"Feature","geometry":{"type":"Point","coordinates":[103.85523,1.305125]},"properties":{"id":"gtfs/singapore-rail/DT22/DT","name":"Jalan Besar","mode":"subway","system":"Metro","status":"open","status_detail":"Open","status_source":"Published in current static GTFS","network":"Singapore MRT and LRT","operator":"SBST","ref":"DT22","route_ref":"DT","platform_model":"Route-specific platform group"}},{"type":"Feature","geometry":{"type":"Point","coordinates":[103.863067,1.313583]},"properties":{"id":"gtfs/singapore-rail/DT23/DT","name":"Bendemeer","mode":"subway","system":"Metro","status":"open","status_detail":"Open","status_source":"Published in current static GTFS","network":"Singapore MRT and LRT","operator":"SBST","ref":"DT23","route_ref":"DT","platform_model":"Route-specific platform group"}},{"type":"Feature","geometry":{"type":"Point","coordinates":[103.871983,1.321611]},"properties":{"id":"gtfs/singapore-rail/DT24/DT","name":"Geylang Bahru","mode":"subway","system":"Metro","status":"open","status_detail":"Open","status_source":"Published in current static GTFS","network":"Singapore MRT and LRT","operator":"SBST","ref":"DT24","route_ref":"DT","platform_model":"Route-specific platform group"}},{"type":"Feature","geometry":{"type":"Point","coordinates":[103.882958,1.326969]},"properties":{"id":"gtfs/singapore-rail/DT25/DT","name":"Mattar","mode":"subway","system":"Metro","status":"open","status_detail":"Open","status_source":"Published in current static GTFS","network":"Singapore MRT and LRT","operator":"SBST","ref":"DT25","route_ref":"DT","platform_model":"Route-specific platform group"}},{"type":"Feature","geometry":{"type":"Point","coordinates":[103.899379,1.329763]},"properties":{"id":"gtfs/singapore-rail/DT27/DT","name":"Ubi","mode":"subway","system":"Metro","status":"open","status_detail":"Open","status_source":"Published in current static GTFS","network":"Singapore MRT and LRT","operator":"SBST","ref":"DT27","route_ref":"DT","platform_model":"Route-specific platform group"}},{"type":"Feature","geometry":{"type":"Point","coordinates":[103.908611,1.335024]},"properties":{"id":"gtfs/singapore-rail/DT28/DT","name":"Kaki Bukit","mode":"subway","system":"Metro","status":"open","status_detail":"Open","status_source":"Published in current static GTFS","network":"Singapore MRT and LRT","operator":"SBST","ref":"DT28","route_ref":"DT","platform_model":"Route-specific platform group"}},{"type":"Feature","geometry":{"type":"Point","coordinates":[103.918036,1.33475]},"properties":{"id":"gtfs/singapore-rail/DT29/DT","name":"Bedok North","mode":"subway","system":"Metro","status":"open","status_detail":"Open","status_source":"Published in current static GTFS","network":"Singapore MRT and LRT","operator":"SBST","ref":"DT29","route_ref":"DT","platform_model":"Route-specific platform group"}},{"type":"Feature","geometry":{"type":"Point","coordinates":[103.767067,1.362451]},"properties":{"id":"gtfs/singapore-rail/DT3/DT","name":"Hillview","mode":"subway","system":"Metro","status":"open","status_detail":"Open","status_source":"Published in current static GTFS","network":"Singapore MRT and LRT","operator":"SBST","ref":"DT3","route_ref":"DT","platform_model":"Route-specific platform group"}},{"type":"Feature","geometry":{"type":"Point","coordinates":[103.931887,1.336284]},"properties":{"id":"gtfs/singapore-rail/DT30/DT","name":"Bedok Reservoir","mode":"subway","system":"Metro","status":"open","status_detail":"Open","status_source":"Published in current static GTFS","network":"Singapore MRT and LRT","operator":"SBST","ref":"DT30","route_ref":"DT","platform_model":"Route-specific platform group"}},{"type":"Feature","geometry":{"type":"Point","coordinates":[103.93856,1.345519]},"properties":{"id":"gtfs/singapore-rail/DT31/DT","name":"Tampines West","mode":"subway","system":"Metro","status":"open","status_detail":"Open","status_source":"Published in current static GTFS","network":"Singapore MRT and LRT","operator":"SBST","ref":"DT31","route_ref":"DT","platform_model":"Route-specific platform group"}},{"type":"Feature","geometry":{"type":"Point","coordinates":[103.954976,1.356084]},"properties":{"id":"gtfs/singapore-rail/DT33/DT","name":"Tampines East","mode":"subway","system":"Metro","status":"open","status_detail":"Open","status_source":"Published in current static GTFS","network":"Singapore MRT and LRT","operator":"SBST","ref":"DT33","route_ref":"DT","platform_model":"Route-specific platform group"}},{"type":"Feature","geometry":{"type":"Point","coordinates":[103.961263,1.34169]},"properties":{"id":"gtfs/singapore-rail/DT34/DT","name":"Upper Changi","mode":"subway","system":"Metro","status":"open","status_detail":"Open","status_source":"Published in current static GTFS","network":"Singapore MRT and LRT","operator":"SBST","ref":"DT34","route_ref":"DT","platform_model":"Route-specific platform group"}},{"type":"Feature","geometry":{"type":"Point","coordinates":[103.962238,1.33564]},"properties":{"id":"gtfs/singapore-rail/DT35-CG1/CG","name":"Expo","mode":"subway","system":"Metro","status":"open","status_detail":"Open","status_source":"Published in current static GTFS","network":"Singapore MRT and LRT","operator":"LTA","ref":"DT35-CG1","route_ref":"CG","platform_model":"Route-specific platform group"}},{"type":"Feature","geometry":{"type":"Point","coordinates":[103.962238,1.33564]},"properties":{"id":"gtfs/singapore-rail/DT35-CG1/DT","name":"Expo","mode":"subway","system":"Metro","status":"open","status_detail":"Open","status_source":"Published in current static GTFS","network":"Singapore MRT and LRT","operator":"SBST","ref":"DT35-CG1","route_ref":"DT","platform_model":"Route-specific platform group"}},{"type":"Feature","geometry":{"type":"Point","coordinates":[103.769212,1.354339]},"properties":{"id":"gtfs/singapore-rail/DT4/DT","name":"Hume","mode":"subway","system":"Metro","status":"open","status_detail":"Open","status_source":"Published in current static GTFS","network":"Singapore MRT and LRT","operator":"SBST","ref":"DT4","route_ref":"DT","platform_model":"Route-specific platform group"}},{"type":"Feature","geometry":{"type":"Point","coordinates":[103.775936,1.341664]},"properties":{"id":"gtfs/singapore-rail/DT5/DT","name":"Beauty World","mode":"subway","system":"Metro","status":"open","status_detail":"Open","status_source":"Published in current static GTFS","network":"Singapore MRT and LRT","operator":"SBST","ref":"DT5","route_ref":"DT","platform_model":"Route-specific platform group"}},{"type":"Feature","geometry":{"type":"Point","coordinates":[103.78416,1.33566]},"properties":{"id":"gtfs/singapore-rail/DT6/DT","name":"King Albert Park","mode":"subway","system":"Metro","status":"open","status_detail":"Open","status_source":"Published in current static GTFS","network":"Singapore MRT and LRT","operator":"SBST","ref":"DT6","route_ref":"DT","platform_model":"Route-specific platform group"}},{"type":"Feature","geometry":{"type":"Point","coordinates":[103.797225,1.330591]},"properties":{"id":"gtfs/singapore-rail/DT7/DT","name":"Sixth Avenue","mode":"subway","system":"Metro","status":"open","status_detail":"Open","status_source":"Published in current static GTFS","network":"Singapore MRT and LRT","operator":"SBST","ref":"DT7","route_ref":"DT","platform_model":"Route-specific platform group"}},{"type":"Feature","geometry":{"type":"Point","coordinates":[103.807753,1.325701]},"properties":{"id":"gtfs/singapore-rail/DT8/DT","name":"Tan Kah Kee","mode":"subway","system":"Metro","status":"open","status_detail":"Open","status_source":"Published in current static GTFS","network":"Singapore MRT and LRT","operator":"SBST","ref":"DT8","route_ref":"DT","platform_model":"Route-specific platform group"}},{"type":"Feature","geometry":{"type":"Point","coordinates":[103.949255,1.373031]},"properties":{"id":"gtfs/singapore-rail/EW1/EW","name":"Pasir Ris","mode":"subway","system":"Metro","status":"open","status_detail":"Open","status_source":"Published in current static GTFS","network":"Singapore MRT and LRT","operator":"SMRT","ref":"EW1","route_ref":"EW","platform_model":"Route-specific platform group"}},{"type":"Feature","geometry":{"type":"Point","coordinates":[103.871339,1.311448]},"properties":{"id":"gtfs/singapore-rail/EW10/EW","name":"Kallang","mode":"subway","system":"Metro","status":"open","status_detail":"Open","status_source":"Published in current static GTFS","network":"Singapore MRT and LRT","operator":"SMRT","ref":"EW10","route_ref":"EW","platform_model":"Route-specific platform group"}},{"type":"Feature","geometry":{"type":"Point","coordinates":[103.86303,1.307445]},"properties":{"id":"gtfs/singapore-rail/EW11/EW","name":"Lavender","mode":"subway","system":"Metro","status":"open","status_detail":"Open","status_source":"Published in current static GTFS","network":"Singapore MRT and LRT","operator":"SMRT","ref":"EW11","route_ref":"EW","platform_model":"Route-specific platform group"}},{"type":"Feature","geometry":{"type":"Point","coordinates":[103.856095,1.30053]},"properties":{"id":"gtfs/singapore-rail/EW12-DT14/DT","name":"Bugis","mode":"subway","system":"Metro","status":"open","status_detail":"Open","status_source":"Published in current static GTFS","network":"Singapore MRT and LRT","operator":"SBST","ref":"EW12-DT14","route_ref":"DT","platform_model":"Route-specific platform group"}},{"type":"Feature","geometry":{"type":"Point","coordinates":[103.856095,1.30053]},"properties":{"id":"gtfs/singapore-rail/EW12-DT14/EW","name":"Bugis","mode":"subway","system":"Metro","status":"open","status_detail":"Open","status_source":"Published in current static GTFS","network":"Singapore MRT and LRT","operator":"SMRT","ref":"EW12-DT14","route_ref":"EW","platform_model":"Route-specific platform group"}},{"type":"Feature","geometry":{"type":"Point","coordinates":[103.845884,1.276574]},"properties":{"id":"gtfs/singapore-rail/EW15/EW","name":"Tanjong Pagar","mode":"subway","system":"Metro","status":"open","status_detail":"Open","status_source":"Published in current static GTFS","network":"Singapore MRT and LRT","operator":"SMRT","ref":"EW15","route_ref":"EW","platform_model":"Route-specific platform group"}},{"type":"Feature","geometry":{"type":"Point","coordinates":[103.840241,1.280685]},"properties":{"id":"gtfs/singapore-rail/EW16-NE3-TE17/EW","name":"Outram Park","mode":"subway","system":"Metro","status":"open","status_detail":"Open","status_source":"Published in current static GTFS","network":"Singapore MRT and LRT","operator":"SMRT","ref":"EW16-NE3-TE17","route_ref":"EW","platform_model":"Route-specific platform group"}},{"type":"Feature","geometry":{"type":"Point","coordinates":[103.840241,1.280685]},"properties":{"id":"gtfs/singapore-rail/EW16-NE3-TE17/NE","name":"Outram Park","mode":"subway","system":"Metro","status":"open","status_detail":"Open","status_source":"Published in current static GTFS","network":"Singapore MRT and LRT","operator":"SBST","ref":"EW16-NE3-TE17","route_ref":"NE","platform_model":"Route-specific platform group"}},{"type":"Feature","geometry":{"type":"Point","coordinates":[103.840241,1.280685]},"properties":{"id":"gtfs/singapore-rail/EW16-NE3-TE17/TE","name":"Outram Park","mode":"subway","system":"Metro","status":"open","status_detail":"Open","status_source":"Published in current static GTFS","network":"Singapore MRT and LRT","operator":"SMRT","ref":"EW16-NE3-TE17","route_ref":"TE","platform_model":"Route-specific platform group"}},{"type":"Feature","geometry":{"type":"Point","coordinates":[103.827642,1.286095]},"properties":{"id":"gtfs/singapore-rail/EW17/EW","name":"Tiong Bahru","mode":"subway","system":"Metro","status":"open","status_detail":"Open","status_source":"Published in current static GTFS","network":"Singapore MRT and LRT","operator":"SMRT","ref":"EW17","route_ref":"EW","platform_model":"Route-specific platform group"}},{"type":"Feature","geometry":{"type":"Point","coordinates":[103.816757,1.289653]},"properties":{"id":"gtfs/singapore-rail/EW18/EW","name":"Redhill","mode":"subway","system":"Metro","status":"open","status_detail":"Open","status_source":"Published in current static GTFS","network":"Singapore MRT and LRT","operator":"SMRT","ref":"EW18","route_ref":"EW","platform_model":"Route-specific platform group"}},{"type":"Feature","geometry":{"type":"Point","coordinates":[103.806052,1.294552]},"properties":{"id":"gtfs/singapore-rail/EW19/EW","name":"Queenstown","mode":"subway","system":"Metro","status":"open","status_detail":"Open","status_source":"Published in current static GTFS","network":"Singapore MRT and LRT","operator":"SMRT","ref":"EW19","route_ref":"EW","platform_model":"Route-specific platform group"}},{"type":"Feature","geometry":{"type":"Point","coordinates":[103.945084,1.353374]},"properties":{"id":"gtfs/singapore-rail/EW2-DT32/DT","name":"Tampines","mode":"subway","system":"Metro","status":"open","status_detail":"Open","status_source":"Published in current static GTFS","network":"Singapore MRT and LRT","operator":"SBST","ref":"EW2-DT32","route_ref":"DT","platform_model":"Route-specific platform group"}},{"type":"Feature","geometry":{"type":"Point","coordinates":[103.945084,1.353374]},"properties":{"id":"gtfs/singapore-rail/EW2-DT32/EW","name":"Tampines","mode":"subway","system":"Metro","status":"open","status_detail":"Open","status_source":"Published in current static GTFS","network":"Singapore MRT and LRT","operator":"SMRT","ref":"EW2-DT32","route_ref":"EW","platform_model":"Route-specific platform group"}},{"type":"Feature","geometry":{"type":"Point","coordinates":[103.798308,1.302443]},"properties":{"id":"gtfs/singapore-rail/EW20/EW","name":"Commonwealth","mode":"subway","system":"Metro","status":"open","status_detail":"Open","status_source":"Published in current static GTFS","network":"Singapore MRT and LRT","operator":"SMRT","ref":"EW20","route_ref":"EW","platform_model":"Route-specific platform group"}},{"type":"Feature","geometry":{"type":"Point","coordinates":[103.790705,1.307263]},"properties":{"id":"gtfs/singapore-rail/EW21-CC22/CC","name":"Buona Vista","mode":"subway","system":"Metro","status":"open","status_detail":"Open","status_source":"Published in current static GTFS","network":"Singapore MRT and LRT","operator":"SMRT","ref":"EW21-CC22","route_ref":"CC","platform_model":"Route-specific platform group"}},{"type":"Feature","geometry":{"type":"Point","coordinates":[103.790705,1.307263]},"properties":{"id":"gtfs/singapore-rail/EW21-CC22/EW","name":"Buona Vista","mode":"subway","system":"Metro","status":"open","status_detail":"Open","status_source":"Published in current static GTFS","network":"Singapore MRT and LRT","operator":"SMRT","ref":"EW21-CC22","route_ref":"EW","platform_model":"Route-specific platform group"}},{"type":"Feature","geometry":{"type":"Point","coordinates":[103.778628,1.311421]},"properties":{"id":"gtfs/singapore-rail/EW22/EW","name":"Dover","mode":"subway","system":"Metro","status":"open","status_detail":"Open","status_source":"Published in current static GTFS","network":"Singapore MRT and LRT","operator":"SMRT","ref":"EW22","route_ref":"EW","platform_model":"Route-specific platform group"}},{"type":"Feature","geometry":{"type":"Point","coordinates":[103.765231,1.3151]},"properties":{"id":"gtfs/singapore-rail/EW23/EW","name":"Clementi","mode":"subway","system":"Metro","status":"open","status_detail":"Open","status_source":"Published in current static GTFS","network":"Singapore MRT and LRT","operator":"SMRT","ref":"EW23","route_ref":"EW","platform_model":"Route-specific platform group"}},{"type":"Feature","geometry":{"type":"Point","coordinates":[103.732594,1.34247]},"properties":{"id":"gtfs/singapore-rail/EW25/EW","name":"Chinese Garden","mode":"subway","system":"Metro","status":"open","status_detail":"Open","status_source":"Published in current static GTFS","network":"Singapore MRT and LRT","operator":"SMRT","ref":"EW25","route_ref":"EW","platform_model":"Route-specific platform group"}},{"type":"Feature","geometry":{"type":"Point","coordinates":[103.720801,1.344303]},"properties":{"id":"gtfs/singapore-rail/EW26/EW","name":"Lakeside","mode":"subway","system":"Metro","status":"open","status_detail":"Open","status_source":"Published in current static GTFS","network":"Singapore MRT and LRT","operator":"SMRT","ref":"EW26","route_ref":"EW","platform_model":"Route-specific platform group"}},{"type":"Feature","geometry":{"type":"Point","coordinates":[103.705777,1.338472]},"properties":{"id":"gtfs/singapore-rail/EW27/EW","name":"Boon Lay","mode":"subway","system":"Metro","status":"open","status_detail":"Open","status_source":"Published in current static GTFS","network":"Singapore MRT and LRT","operator":"SMRT","ref":"EW27","route_ref":"EW","platform_model":"Route-specific platform group"}},{"type":"Feature","geometry":{"type":"Point","coordinates":[103.697354,1.337575]},"properties":{"id":"gtfs/singapore-rail/EW28/EW","name":"Pioneer","mode":"subway","system":"Metro","status":"open","status_detail":"Open","status_source":"Published in current static GTFS","network":"Singapore MRT and LRT","operator":"SMRT","ref":"EW28","route_ref":"EW","platform_model":"Route-specific platform group"}},{"type":"Feature","geometry":{"type":"Point","coordinates":[103.678285,1.32772]},"properties":{"id":"gtfs/singapore-rail/EW29/EW","name":"Joo Koon","mode":"subway","system":"Metro","status":"open","status_detail":"Open","status_source":"Published in current static GTFS","network":"Singapore MRT and LRT","operator":"SMRT","ref":"EW29","route_ref":"EW","platform_model":"Route-specific platform group"}},{"type":"Feature","geometry":{"type":"Point","coordinates":[103.953376,1.343179]},"properties":{"id":"gtfs/singapore-rail/EW3/EW","name":"Simei","mode":"subway","system":"Metro","status":"open","status_detail":"Open","status_source":"Published in current static GTFS","network":"Singapore MRT and LRT","operator":"SMRT","ref":"EW3","route_ref":"EW","platform_model":"Route-specific platform group"}},{"type":"Feature","geometry":{"type":"Point","coordinates":[103.660415,1.319423]},"properties":{"id":"gtfs/singapore-rail/EW30/EW","name":"Gul Circle","mode":"subway","system":"Metro","status":"open","status_detail":"Open","status_source":"Published in current static GTFS","network":"Singapore MRT and LRT","operator":"SMRT","ref":"EW30","route_ref":"EW","platform_model":"Route-specific platform group"}},{"type":"Feature","geometry":{"type":"Point","coordinates":[103.649575,1.320811]},"properties":{"id":"gtfs/singapore-rail/EW31/EW","name":"Tuas Crescent","mode":"subway","system":"Metro","status":"open","status_detail":"Open","status_source":"Published in current static GTFS","network":"Singapore MRT and LRT","operator":"SMRT","ref":"EW31","route_ref":"EW","platform_model":"Route-specific platform group"}},{"type":"Feature","geometry":{"type":"Point","coordinates":[103.640149,1.329495]},"properties":{"id":"gtfs/singapore-rail/EW32/EW","name":"Tuas West Road","mode":"subway","system":"Metro","status":"open","status_detail":"Open","status_source":"Published in current static GTFS","network":"Singapore MRT and LRT","operator":"SMRT","ref":"EW32","route_ref":"EW","platform_model":"Route-specific platform group"}},{"type":"Feature","geometry":{"type":"Point","coordinates":[103.636961,1.340429]},"properties":{"id":"gtfs/singapore-rail/EW33/EW","name":"Tuas Link","mode":"subway","system":"Metro","status":"open","status_detail":"Open","status_source":"Published in current static GTFS","network":"Singapore MRT and LRT","operator":"SMRT","ref":"EW33","route_ref":"EW","platform_model":"Route-specific platform group"}},{"type":"Feature","geometry":{"type":"Point","coordinates":[103.946513,1.327262]},"properties":{"id":"gtfs/singapore-rail/EW4-CG/CG","name":"Tanah Merah","mode":"subway","system":"Metro","status":"open","status_detail":"Open","status_source":"Published in current static GTFS","network":"Singapore MRT and LRT","operator":"LTA","ref":"EW4-CG","route_ref":"CG","platform_model":"Route-specific platform group"}},{"type":"Feature","geometry":{"type":"Point","coordinates":[103.946513,1.327262]},"properties":{"id":"gtfs/singapore-rail/EW4-CG/EW","name":"Tanah Merah","mode":"subway","system":"Metro","status":"open","status_detail":"Open","status_source":"Published in current static GTFS","network":"Singapore MRT and LRT","operator":"SMRT","ref":"EW4-CG","route_ref":"EW","platform_model":"Route-specific platform group"}},{"type":"Feature","geometry":{"type":"Point","coordinates":[103.929995,1.323935]},"properties":{"id":"gtfs/singapore-rail/EW5/EW","name":"Bedok","mode":"subway","system":"Metro","status":"open","status_detail":"Open","status_source":"Published in current static GTFS","network":"Singapore MRT and LRT","operator":"SMRT","ref":"EW5","route_ref":"EW","platform_model":"Route-specific platform group"}},{"type":"Feature","geometry":{"type":"Point","coordinates":[103.912762,1.321055]},"properties":{"id":"gtfs/singapore-rail/EW6/EW","name":"Kembangan","mode":"subway","system":"Metro","status":"open","status_detail":"Open","status_source":"Published in current static GTFS","network":"Singapore MRT and LRT","operator":"SMRT","ref":"EW6","route_ref":"EW","platform_model":"Route-specific platform group"}},{"type":"Feature","geometry":{"type":"Point","coordinates":[103.903058,1.319814]},"properties":{"id":"gtfs/singapore-rail/EW7/EW","name":"Eunos","mode":"subway","system":"Metro","status":"open","status_detail":"Open","status_source":"Published in current static GTFS","network":"Singapore MRT and LRT","operator":"SMRT","ref":"EW7","route_ref":"EW","platform_model":"Route-specific platform group"}},{"type":"Feature","geometry":{"type":"Point","coordinates":[103.892318,1.31805]},"properties":{"id":"gtfs/singapore-rail/EW8-CC9/CC","name":"Paya Lebar","mode":"subway","system":"Metro","status":"open","status_detail":"Open","status_source":"Published in current static GTFS","network":"Singapore MRT and LRT","operator":"SMRT","ref":"EW8-CC9","route_ref":"CC","platform_model":"Route-specific platform group"}},{"type":"Feature","geometry":{"type":"Point","coordinates":[103.892318,1.31805]},"properties":{"id":"gtfs/singapore-rail/EW8-CC9/EW","name":"Paya Lebar","mode":"subway","system":"Metro","status":"open","status_detail":"Open","status_source":"Published in current static GTFS","network":"Singapore MRT and LRT","operator":"SMRT","ref":"EW8-CC9","route_ref":"EW","platform_model":"Route-specific platform group"}},{"type":"Feature","geometry":{"type":"Point","coordinates":[103.882665,1.316259]},"properties":{"id":"gtfs/singapore-rail/EW9/EW","name":"Aljunied","mode":"subway","system":"Metro","status":"open","status_detail":"Open","status_source":"Published in current static GTFS","network":"Singapore MRT and LRT","operator":"SMRT","ref":"EW9","route_ref":"EW","platform_model":"Route-specific platform group"}},{"type":"Feature","geometry":{"type":"Point","coordinates":[103.822403,1.265391]},"properties":{"id":"gtfs/singapore-rail/NE1-CC29/CC","name":"HarbourFront","mode":"subway","system":"Metro","status":"open","status_detail":"Open","status_source":"Published in current static GTFS","network":"Singapore MRT and LRT","operator":"SMRT","ref":"NE1-CC29","route_ref":"CC","platform_model":"Route-specific platform group"}},{"type":"Feature","geometry":{"type":"Point","coordinates":[103.822403,1.265391]},"properties":{"id":"gtfs/singapore-rail/NE1-CC29/NE","name":"HarbourFront","mode":"subway","system":"Metro","status":"open","status_detail":"Open","status_source":"Published in current static GTFS","network":"Singapore MRT and LRT","operator":"SBST","ref":"NE1-CC29","route_ref":"NE","platform_model":"Route-specific platform group"}},{"type":"Feature","geometry":{"type":"Point","coordinates":[103.869093,1.331254]},"properties":{"id":"gtfs/singapore-rail/NE10/NE","name":"Potong Pasir","mode":"subway","system":"Metro","status":"open","status_detail":"Open","status_source":"Published in current static GTFS","network":"Singapore MRT and LRT","operator":"SBST","ref":"NE10","route_ref":"NE","platform_model":"Route-specific platform group"}},{"type":"Feature","geometry":{"type":"Point","coordinates":[103.870754,1.339197]},"properties":{"id":"gtfs/singapore-rail/NE11/NE","name":"Woodleigh","mode":"subway","system":"Metro","status":"open","status_detail":"Open","status_source":"Published in current static GTFS","network":"Singapore MRT and LRT","operator":"SBST","ref":"NE11","route_ref":"NE","platform_model":"Route-specific platform group"}},{"type":"Feature","geometry":{"type":"Point","coordinates":[103.873771,1.349807]},"properties":{"id":"gtfs/singapore-rail/NE12-CC13/CC","name":"Serangoon","mode":"subway","system":"Metro","status":"open","status_detail":"Open","status_source":"Published in current static GTFS","network":"Singapore MRT and LRT","operator":"SMRT","ref":"NE12-CC13","route_ref":"CC","platform_model":"Route-specific platform group"}},{"type":"Feature","geometry":{"type":"Point","coordinates":[103.873771,1.349807]},"properties":{"id":"gtfs/singapore-rail/NE12-CC13/NE","name":"Serangoon","mode":"subway","system":"Metro","status":"open","status_detail":"Open","status_source":"Published in current static GTFS","network":"Singapore MRT and LRT","operator":"SBST","ref":"NE12-CC13","route_ref":"NE","platform_model":"Route-specific platform group"}},{"type":"Feature","geometry":{"type":"Point","coordinates":[103.884874,1.359977]},"properties":{"id":"gtfs/singapore-rail/NE13/NE","name":"Kovan","mode":"subway","system":"Metro","status":"open","status_detail":"Open","status_source":"Published in current static GTFS","network":"Singapore MRT and LRT","operator":"SBST","ref":"NE13","route_ref":"NE","platform_model":"Route-specific platform group"}},{"type":"Feature","geometry":{"type":"Point","coordinates":[103.892754,1.371904]},"properties":{"id":"gtfs/singapore-rail/NE14/NE","name":"Hougang","mode":"subway","system":"Metro","status":"open","status_detail":"Open","status_source":"Published in current static GTFS","network":"Singapore MRT and LRT","operator":"SBST","ref":"NE14","route_ref":"NE","platform_model":"Route-specific platform group"}},{"type":"Feature","geometry":{"type":"Point","coordinates":[103.89305,1.383056]},"properties":{"id":"gtfs/singapore-rail/NE15/NE","name":"Buangkok","mode":"subway","system":"Metro","status":"open","status_detail":"Open","status_source":"Published in current static GTFS","network":"Singapore MRT and LRT","operator":"SBST","ref":"NE15","route_ref":"NE","platform_model":"Route-specific platform group"}},{"type":"Feature","geometry":{"type":"Point","coordinates":[103.895294,1.39133]},"properties":{"id":"gtfs/singapore-rail/NE16-STC/NE","name":"Sengkang","mode":"subway","system":"Metro","status":"open","status_detail":"Open","status_source":"Published in current static GTFS","network":"Singapore MRT and LRT","operator":"SBST","ref":"NE16-STC","route_ref":"NE","platform_model":"Route-specific platform group"}},{"type":"Feature","geometry":{"type":"Point","coordinates":[103.895294,1.39133]},"properties":{"id":"gtfs/singapore-rail/NE16-STC/SK","name":"Sengkang","mode":"subway","system":"Metro","status":"open","status_detail":"Open","status_source":"Published in current static GTFS","network":"Singapore MRT and LRT","operator":"SBST","ref":"NE16-STC","route_ref":"SK","platform_model":"Route-specific platform group"}},{"type":"Feature","geometry":{"type":"Point","coordinates":[103.902354,1.405255]},"properties":{"id":"gtfs/singapore-rail/NE17-PTC/NE","name":"Punggol","mode":"subway","system":"Metro","status":"open","status_detail":"Open","status_source":"Published in current static GTFS","network":"Singapore MRT and LRT","operator":"SBST","ref":"NE17-PTC","route_ref":"NE","platform_model":"Route-specific platform group"}},{"type":"Feature","geometry":{"type":"Point","coordinates":[103.902354,1.405255]},"properties":{"id":"gtfs/singapore-rail/NE17-PTC/PG","name":"Punggol","mode":"subway","system":"Metro","status":"open","status_detail":"Open","status_source":"Published in current static GTFS","network":"Singapore MRT and LRT","operator":"SBST","ref":"NE17-PTC","route_ref":"PG","platform_model":"Route-specific platform group"}},{"type":"Feature","geometry":{"type":"Point","coordinates":[103.910329,1.415018]},"properties":{"id":"gtfs/singapore-rail/NE18/NE","name":"Punggol Coast","mode":"subway","system":"Metro","status":"open","status_detail":"Open","status_source":"Published in current static GTFS","network":"Singapore MRT and LRT","operator":"SBST","ref":"NE18","route_ref":"NE","platform_model":"Route-specific platform group"}},{"type":"Feature","geometry":{"type":"Point","coordinates":[103.844003,1.28502]},"properties":{"id":"gtfs/singapore-rail/NE4-DT19/DT","name":"Chinatown","mode":"subway","system":"Metro","status":"open","status_detail":"Open","status_source":"Published in current static GTFS","network":"Singapore MRT and LRT","operator":"SBST","ref":"NE4-DT19","route_ref":"DT","platform_model":"Route-specific platform group"}},{"type":"Feature","geometry":{"type":"Point","coordinates":[103.844003,1.28502]},"properties":{"id":"gtfs/singapore-rail/NE4-DT19/NE","name":"Chinatown","mode":"subway","system":"Metro","status":"open","status_detail":"Open","status_source":"Published in current static GTFS","network":"Singapore MRT and LRT","operator":"SBST","ref":"NE4-DT19","route_ref":"NE","platform_model":"Route-specific platform group"}},{"type":"Feature","geometry":{"type":"Point","coordinates":[103.846869,1.288981]},"properties":{"id":"gtfs/singapore-rail/NE5/NE","name":"Clarke Quay","mode":"subway","system":"Metro","status":"open","status_detail":"Open","status_source":"Published in current static GTFS","network":"Singapore MRT and LRT","operator":"SBST","ref":"NE5","route_ref":"NE","platform_model":"Route-specific platform group"}},{"type":"Feature","geometry":{"type":"Point","coordinates":[103.849299,1.306571]},"properties":{"id":"gtfs/singapore-rail/NE7-DT12/DT","name":"Little India","mode":"subway","system":"Metro","status":"open","status_detail":"Open","status_source":"Published in current static GTFS","network":"Singapore MRT and LRT","operator":"SBST","ref":"NE7-DT12","route_ref":"DT","platform_model":"Route-specific platform group"}},{"type":"Feature","geometry":{"type":"Point","coordinates":[103.849299,1.306571]},"properties":{"id":"gtfs/singapore-rail/NE7-DT12/NE","name":"Little India","mode":"subway","system":"Metro","status":"open","status_detail":"Open","status_source":"Published in current static GTFS","network":"Singapore MRT and LRT","operator":"SBST","ref":"NE7-DT12","route_ref":"NE","platform_model":"Route-specific platform group"}},{"type":"Feature","geometry":{"type":"Point","coordinates":[103.854377,1.312708]},"properties":{"id":"gtfs/singapore-rail/NE8/NE","name":"Farrer Park","mode":"subway","system":"Metro","status":"open","status_detail":"Open","status_source":"Published in current static GTFS","network":"Singapore MRT and LRT","operator":"SBST","ref":"NE8","route_ref":"NE","platform_model":"Route-specific platform group"}},{"type":"Feature","geometry":{"type":"Point","coordinates":[103.861521,1.319824]},"properties":{"id":"gtfs/singapore-rail/NE9/NE","name":"Boon Keng","mode":"subway","system":"Metro","status":"open","status_detail":"Open","status_source":"Published in current static GTFS","network":"Singapore MRT and LRT","operator":"SBST","ref":"NE9","route_ref":"NE","platform_model":"Route-specific platform group"}},{"type":"Feature","geometry":{"type":"Point","coordinates":[103.742297,1.333115]},"properties":{"id":"gtfs/singapore-rail/NS1-EW24/EW","name":"Jurong East","mode":"subway","system":"Metro","status":"open","status_detail":"Open","status_source":"Published in current static GTFS","network":"Singapore MRT and LRT","operator":"SMRT","ref":"NS1-EW24","route_ref":"EW","platform_model":"Route-specific platform group"}},{"type":"Feature","geometry":{"type":"Point","coordinates":[103.742297,1.333115]},"properties":{"id":"gtfs/singapore-rail/NS1-EW24/NS","name":"Jurong East","mode":"subway","system":"Metro","status":"open","status_detail":"Open","status_source":"Published in current static GTFS","network":"Singapore MRT and LRT","operator":"SMRT","ref":"NS1-EW24","route_ref":"NS","platform_model":"Route-specific platform group"}},{"type":"Feature","geometry":{"type":"Point","coordinates":[103.800959,1.440637]},"properties":{"id":"gtfs/singapore-rail/NS10/NS","name":"Admiralty","mode":"subway","system":"Metro","status":"open","status_detail":"Open","status_source":"Published in current static GTFS","network":"Singapore MRT and LRT","operator":"SMRT","ref":"NS10","route_ref":"NS","platform_model":"Route-specific platform group"}},{"type":"Feature","geometry":{"type":"Point","coordinates":[103.820056,1.449093]},"properties":{"id":"gtfs/singapore-rail/NS11/NS","name":"Sembawang","mode":"subway","system":"Metro","status":"open","status_detail":"Open","status_source":"Published in current static GTFS","network":"Singapore MRT and LRT","operator":"SMRT","ref":"NS11","route_ref":"NS","platform_model":"Route-specific platform group"}},{"type":"Feature","geometry":{"type":"Point","coordinates":[103.829502,1.443369]},"properties":{"id":"gtfs/singapore-rail/NS12/NS","name":"Canberra","mode":"subway","system":"Metro","status":"open","status_detail":"Open","status_source":"Published in current static GTFS","network":"Singapore MRT and LRT","operator":"SMRT","ref":"NS12","route_ref":"NS","platform_model":"Route-specific platform group"}},{"type":"Feature","geometry":{"type":"Point","coordinates":[103.835028,1.429384]},"properties":{"id":"gtfs/singapore-rail/NS13/NS","name":"Yishun","mode":"subway","system":"Metro","status":"open","status_detail":"Open","status_source":"Published in current static GTFS","network":"Singapore MRT and LRT","operator":"SMRT","ref":"NS13","route_ref":"NS","platform_model":"Route-specific platform group"}},{"type":"Feature","geometry":{"type":"Point","coordinates":[103.832998,1.417316]},"properties":{"id":"gtfs/singapore-rail/NS14/NS","name":"Khatib","mode":"subway","system":"Metro","status":"open","status_detail":"Open","status_source":"Published in current static GTFS","network":"Singapore MRT and LRT","operator":"SMRT","ref":"NS14","route_ref":"NS","platform_model":"Route-specific platform group"}},{"type":"Feature","geometry":{"type":"Point","coordinates":[103.844965,1.38178]},"properties":{"id":"gtfs/singapore-rail/NS15/NS","name":"Yio Chu Kang","mode":"subway","system":"Metro","status":"open","status_detail":"Open","status_source":"Published in current static GTFS","network":"Singapore MRT and LRT","operator":"SMRT","ref":"NS15","route_ref":"NS","platform_model":"Route-specific platform group"}},{"type":"Feature","geometry":{"type":"Point","coordinates":[103.84954,1.370053]},"properties":{"id":"gtfs/singapore-rail/NS16/NS","name":"Ang Mo Kio","mode":"subway","system":"Metro","status":"open","status_detail":"Open","status_source":"Published in current static GTFS","network":"Singapore MRT and LRT","operator":"SMRT","ref":"NS16","route_ref":"NS","platform_model":"Route-specific platform group"}},{"type":"Feature","geometry":{"type":"Point","coordinates":[103.848263,1.351455]},"properties":{"id":"gtfs/singapore-rail/NS17-CC15/CC","name":"Bishan","mode":"subway","system":"Metro","status":"open","status_detail":"Open","status_source":"Published in current static GTFS","network":"Singapore MRT and LRT","operator":"SMRT","ref":"NS17-CC15","route_ref":"CC","platform_model":"Route-specific platform group"}},{"type":"Feature","geometry":{"type":"Point","coordinates":[103.848263,1.351455]},"properties":{"id":"gtfs/singapore-rail/NS17-CC15/NS","name":"Bishan","mode":"subway","system":"Metro","status":"open","status_detail":"Open","status_source":"Published in current static GTFS","network":"Singapore MRT and LRT","operator":"SMRT","ref":"NS17-CC15","route_ref":"NS","platform_model":"Route-specific platform group"}},{"type":"Feature","geometry":{"type":"Point","coordinates":[103.846788,1.340599]},"properties":{"id":"gtfs/singapore-rail/NS18/NS","name":"Braddell","mode":"subway","system":"Metro","status":"open","status_detail":"Open","status_source":"Published in current static GTFS","network":"Singapore MRT and LRT","operator":"SMRT","ref":"NS18","route_ref":"NS","platform_model":"Route-specific platform group"}},{"type":"Feature","geometry":{"type":"Point","coordinates":[103.847327,1.332297]},"properties":{"id":"gtfs/singapore-rail/NS19/NS","name":"Toa Payoh","mode":"subway","system":"Metro","status":"open","status_detail":"Open","status_source":"Published in current static GTFS","network":"Singapore MRT and LRT","operator":"SMRT","ref":"NS19","route_ref":"NS","platform_model":"Route-specific platform group"}},{"type":"Feature","geometry":{"type":"Point","coordinates":[103.749591,1.349057]},"properties":{"id":"gtfs/singapore-rail/NS2/NS","name":"Bukit Batok","mode":"subway","system":"Metro","status":"open","status_detail":"Open","status_source":"Published in current static GTFS","network":"Singapore MRT and LRT","operator":"SMRT","ref":"NS2","route_ref":"NS","platform_model":"Route-specific platform group"}},{"type":"Feature","geometry":{"type":"Point","coordinates":[103.843492,1.320084]},"properties":{"id":"gtfs/singapore-rail/NS20/NS","name":"Novena","mode":"subway","system":"Metro","status":"open","status_detail":"Open","status_source":"Published in current static GTFS","network":"Singapore MRT and LRT","operator":"SMRT","ref":"NS20","route_ref":"NS","platform_model":"Route-specific platform group"}},{"type":"Feature","geometry":{"type":"Point","coordinates":[103.838864,1.31296]},"properties":{"id":"gtfs/singapore-rail/NS21-DT11/DT","name":"Newton","mode":"subway","system":"Metro","status":"open","status_detail":"Open","status_source":"Published in current static GTFS","network":"Singapore MRT and LRT","operator":"SBST","ref":"NS21-DT11","route_ref":"DT","platform_model":"Route-specific platform group"}},{"type":"Feature","geometry":{"type":"Point","coordinates":[103.838864,1.31296]},"properties":{"id":"gtfs/singapore-rail/NS21-DT11/NS","name":"Newton","mode":"subway","system":"Metro","status":"open","status_detail":"Open","status_source":"Published in current static GTFS","network":"Singapore MRT and LRT","operator":"SMRT","ref":"NS21-DT11","route_ref":"NS","platform_model":"Route-specific platform group"}},{"type":"Feature","geometry":{"type":"Point","coordinates":[103.831982,1.303223]},"properties":{"id":"gtfs/singapore-rail/NS22-TE14/NS","name":"Orchard","mode":"subway","system":"Metro","status":"open","status_detail":"Open","status_source":"Published in current static GTFS","network":"Singapore MRT and LRT","operator":"SMRT","ref":"NS22-TE14","route_ref":"NS","platform_model":"Route-specific platform group"}},{"type":"Feature","geometry":{"type":"Point","coordinates":[103.831982,1.303223]},"properties":{"id":"gtfs/singapore-rail/NS22-TE14/TE","name":"Orchard","mode":"subway","system":"Metro","status":"open","status_detail":"Open","status_source":"Published in current static GTFS","network":"Singapore MRT and LRT","operator":"SMRT","ref":"NS22-TE14","route_ref":"TE","platform_model":"Route-specific platform group"}},{"type":"Feature","geometry":{"type":"Point","coordinates":[103.838504,1.300328]},"properties":{"id":"gtfs/singapore-rail/NS23/NS","name":"Somerset","mode":"subway","system":"Metro","status":"open","status_detail":"Open","status_source":"Published in current static GTFS","network":"Singapore MRT and LRT","operator":"SMRT","ref":"NS23","route_ref":"NS","platform_model":"Route-specific platform group"}},{"type":"Feature","geometry":{"type":"Point","coordinates":[103.84502,1.298786]},"properties":{"id":"gtfs/singapore-rail/NS24-NE6-CC1/CC","name":"Dhoby Ghaut","mode":"subway","system":"Metro","status":"open","status_detail":"Open","status_source":"Published in current static GTFS","network":"Singapore MRT and LRT","operator":"SMRT","ref":"NS24-NE6-CC1","route_ref":"CC","platform_model":"Route-specific platform group"}},{"type":"Feature","geometry":{"type":"Point","coordinates":[103.84502,1.298786]},"properties":{"id":"gtfs/singapore-rail/NS24-NE6-CC1/NE","name":"Dhoby Ghaut","mode":"subway","system":"Metro","status":"open","status_detail":"Open","status_source":"Published in current static GTFS","network":"Singapore MRT and LRT","operator":"SBST","ref":"NS24-NE6-CC1","route_ref":"NE","platform_model":"Route-specific platform group"}},{"type":"Feature","geometry":{"type":"Point","coordinates":[103.84502,1.298786]},"properties":{"id":"gtfs/singapore-rail/NS24-NE6-CC1/NS","name":"Dhoby Ghaut","mode":"subway","system":"Metro","status":"open","status_detail":"Open","status_source":"Published in current static GTFS","network":"Singapore MRT and LRT","operator":"SMRT","ref":"NS24-NE6-CC1","route_ref":"NS","platform_model":"Route-specific platform group"}},{"type":"Feature","geometry":{"type":"Point","coordinates":[103.851835,1.293214]},"properties":{"id":"gtfs/singapore-rail/NS25-EW13/EW","name":"City Hall","mode":"subway","system":"Metro","status":"open","status_detail":"Open","status_source":"Published in current static GTFS","network":"Singapore MRT and LRT","operator":"SMRT","ref":"NS25-EW13","route_ref":"EW","platform_model":"Route-specific platform group"}},{"type":"Feature","geometry":{"type":"Point","coordinates":[103.851835,1.293214]},"properties":{"id":"gtfs/singapore-rail/NS25-EW13/NS","name":"City Hall","mode":"subway","system":"Metro","status":"open","status_detail":"Open","status_source":"Published in current static GTFS","network":"Singapore MRT and LRT","operator":"SMRT","ref":"NS25-EW13","route_ref":"NS","platform_model":"Route-specific platform group"}},{"type":"Feature","geometry":{"type":"Point","coordinates":[103.85147,1.284409]},"properties":{"id":"gtfs/singapore-rail/NS26-EW14/EW","name":"Raffles Place","mode":"subway","system":"Metro","status":"open","status_detail":"Open","status_source":"Published in current static GTFS","network":"Singapore MRT and LRT","operator":"SMRT","ref":"NS26-EW14","route_ref":"EW","platform_model":"Route-specific platform group"}},{"type":"Feature","geometry":{"type":"Point","coordinates":[103.85147,1.284409]},"properties":{"id":"gtfs/singapore-rail/NS26-EW14/NS","name":"Raffles Place","mode":"subway","system":"Metro","status":"open","status_detail":"Open","status_source":"Published in current static GTFS","network":"Singapore MRT and LRT","operator":"SMRT","ref":"NS26-EW14","route_ref":"NS","platform_model":"Route-specific platform group"}},{"type":"Feature","geometry":{"type":"Point","coordinates":[103.854751,1.275171]},"properties":{"id":"gtfs/singapore-rail/NS27-CE2-TE20/CC","name":"Marina Bay","mode":"subway","system":"Metro","status":"open","status_detail":"Open","status_source":"Published in current static GTFS","network":"Singapore MRT and LRT","operator":"SMRT","ref":"NS27-CE2-TE20","route_ref":"CC","platform_model":"Route-specific platform group"}},{"type":"Feature","geometry":{"type":"Point","coordinates":[103.854751,1.275171]},"properties":{"id":"gtfs/singapore-rail/NS27-CE2-TE20/CE","name":"Marina Bay","mode":"subway","system":"Metro","status":"open","status_detail":"Open","status_source":"Published in current static GTFS","network":"Singapore MRT and LRT","operator":"LTA","ref":"NS27-CE2-TE20","route_ref":"CE","platform_model":"Route-specific platform group"}},{"type":"Feature","geometry":{"type":"Point","coordinates":[103.854751,1.275171]},"properties":{"id":"gtfs/singapore-rail/NS27-CE2-TE20/NS","name":"Marina Bay","mode":"subway","system":"Metro","status":"open","status_detail":"Open","status_source":"Published in current static GTFS","network":"Singapore MRT and LRT","operator":"SMRT","ref":"NS27-CE2-TE20","route_ref":"NS","platform_model":"Route-specific platform group"}},{"type":"Feature","geometry":{"type":"Point","coordinates":[103.854751,1.275171]},"properties":{"id":"gtfs/singapore-rail/NS27-CE2-TE20/TE","name":"Marina Bay","mode":"subway","system":"Metro","status":"open","status_detail":"Open","status_source":"Published in current static GTFS","network":"Singapore MRT and LRT","operator":"SMRT","ref":"NS27-CE2-TE20","route_ref":"TE","platform_model":"Route-specific platform group"}},{"type":"Feature","geometry":{"type":"Point","coordinates":[103.862723,1.27175]},"properties":{"id":"gtfs/singapore-rail/NS28/NS","name":"Marina South Pier","mode":"subway","system":"Metro","status":"open","status_detail":"Open","status_source":"Published in current static GTFS","network":"Singapore MRT and LRT","operator":"SMRT","ref":"NS28","route_ref":"NS","platform_model":"Route-specific platform group"}},{"type":"Feature","geometry":{"type":"Point","coordinates":[103.751825,1.358893]},"properties":{"id":"gtfs/singapore-rail/NS3/NS","name":"Bukit Gombak","mode":"subway","system":"Metro","status":"open","status_detail":"Open","status_source":"Published in current static GTFS","network":"Singapore MRT and LRT","operator":"SMRT","ref":"NS3","route_ref":"NS","platform_model":"Route-specific platform group"}},{"type":"Feature","geometry":{"type":"Point","coordinates":[103.744534,1.384749]},"properties":{"id":"gtfs/singapore-rail/NS4-BP1/BP","name":"Choa Chu Kang","mode":"subway","system":"Metro","status":"open","status_detail":"Open","status_source":"Published in current static GTFS","network":"Singapore MRT and LRT","operator":"SMRT","ref":"NS4-BP1","route_ref":"BP","platform_model":"Route-specific platform group"}},{"type":"Feature","geometry":{"type":"Point","coordinates":[103.744534,1.384749]},"properties":{"id":"gtfs/singapore-rail/NS4-BP1/NS","name":"Choa Chu Kang","mode":"subway","system":"Metro","status":"open","status_detail":"Open","status_source":"Published in current static GTFS","network":"Singapore MRT and LRT","operator":"SMRT","ref":"NS4-BP1","route_ref":"NS","platform_model":"Route-specific platform group"}},{"type":"Feature","geometry":{"type":"Point","coordinates":[103.747401,1.397461]},"properties":{"id":"gtfs/singapore-rail/NS5/NS","name":"Yew Tee","mode":"subway","system":"Metro","status":"open","status_detail":"Open","status_source":"Published in current static GTFS","network":"Singapore MRT and LRT","operator":"SMRT","ref":"NS5","route_ref":"NS","platform_model":"Route-specific platform group"}},{"type":"Feature","geometry":{"type":"Point","coordinates":[103.761989,1.425219]},"properties":{"id":"gtfs/singapore-rail/NS7/NS","name":"Kranji","mode":"subway","system":"Metro","status":"open","status_detail":"Open","status_source":"Published in current static GTFS","network":"Singapore MRT and LRT","operator":"SMRT","ref":"NS7","route_ref":"NS","platform_model":"Route-specific platform group"}},{"type":"Feature","geometry":{"type":"Point","coordinates":[103.774216,1.432542]},"properties":{"id":"gtfs/singapore-rail/NS8/NS","name":"Marsiling","mode":"subway","system":"Metro","status":"open","status_detail":"Open","status_source":"Published in current static GTFS","network":"Singapore MRT and LRT","operator":"SMRT","ref":"NS8","route_ref":"NS","platform_model":"Route-specific platform group"}},{"type":"Feature","geometry":{"type":"Point","coordinates":[103.787675,1.437388]},"properties":{"id":"gtfs/singapore-rail/NS9-TE2/NS","name":"Woodlands","mode":"subway","system":"Metro","status":"open","status_detail":"Open","status_source":"Published in current static GTFS","network":"Singapore MRT and LRT","operator":"SMRT","ref":"NS9-TE2","route_ref":"NS","platform_model":"Route-specific platform group"}},{"type":"Feature","geometry":{"type":"Point","coordinates":[103.787675,1.437388]},"properties":{"id":"gtfs/singapore-rail/NS9-TE2/TE","name":"Woodlands","mode":"subway","system":"Metro","status":"open","status_detail":"Open","status_source":"Published in current static GTFS","network":"Singapore MRT and LRT","operator":"SMRT","ref":"NS9-TE2","route_ref":"TE","platform_model":"Route-specific platform group"}},{"type":"Feature","geometry":{"type":"Point","coordinates":[103.905852,1.399464]},"properties":{"id":"gtfs/singapore-rail/PE1/PG","name":"Cove","mode":"subway","system":"Metro","status":"open","status_detail":"Open","status_source":"Published in current static GTFS","network":"Singapore MRT and LRT","operator":"SBST","ref":"PE1","route_ref":"PG","platform_model":"Route-specific platform group"}},{"type":"Feature","geometry":{"type":"Point","coordinates":[103.908874,1.396976]},"properties":{"id":"gtfs/singapore-rail/PE2/PG","name":"Meridian","mode":"subway","system":"Metro","status":"open","status_detail":"Open","status_source":"Published in current static GTFS","network":"Singapore MRT and LRT","operator":"SBST","ref":"PE2","route_ref":"PG","platform_model":"Route-specific platform group"}},{"type":"Feature","geometry":{"type":"Point","coordinates":[103.912643,1.393876]},"properties":{"id":"gtfs/singapore-rail/PE3/PG","name":"Coral Edge","mode":"subway","system":"Metro","status":"open","status_detail":"Open","status_source":"Published in current static GTFS","network":"Singapore MRT and LRT","operator":"SBST","ref":"PE3","route_ref":"PG","platform_model":"Route-specific platform group"}},{"type":"Feature","geometry":{"type":"Point","coordinates":[103.916135,1.394581]},"properties":{"id":"gtfs/singapore-rail/PE4/PG","name":"Riviera","mode":"subway","system":"Metro","status":"open","status_detail":"Open","status_source":"Published in current static GTFS","network":"Singapore MRT and LRT","operator":"SBST","ref":"PE4","route_ref":"PG","platform_model":"Route-specific platform group"}},{"type":"Feature","geometry":{"type":"Point","coordinates":[103.916445,1.399601]},"properties":{"id":"gtfs/singapore-rail/PE5/PG","name":"Kadaloor","mode":"subway","system":"Metro","status":"open","status_detail":"Open","status_source":"Published in current static GTFS","network":"Singapore MRT and LRT","operator":"SBST","ref":"PE5","route_ref":"PG","platform_model":"Route-specific platform group"}},{"type":"Feature","geometry":{"type":"Point","coordinates":[103.912684,1.402317]},"properties":{"id":"gtfs/singapore-rail/PE6/PG","name":"Oasis","mode":"subway","system":"Metro","status":"open","status_detail":"Open","status_source":"Published in current static GTFS","network":"Singapore MRT and LRT","operator":"SBST","ref":"PE6","route_ref":"PG","platform_model":"Route-specific platform group"}},{"type":"Feature","geometry":{"type":"Point","coordinates":[103.908556,1.405282]},"properties":{"id":"gtfs/singapore-rail/PE7/PG","name":"Damai","mode":"subway","system":"Metro","status":"open","status_detail":"Open","status_source":"Published in current static GTFS","network":"Singapore MRT and LRT","operator":"SBST","ref":"PE7","route_ref":"PG","platform_model":"Route-specific platform group"}},{"type":"Feature","geometry":{"type":"Point","coordinates":[103.904583,1.40975]},"properties":{"id":"gtfs/singapore-rail/PW1/PG","name":"Sam Kee","mode":"subway","system":"Metro","status":"open","status_detail":"Open","status_source":"Published in current static GTFS","network":"Singapore MRT and LRT","operator":"SBST","ref":"PW1","route_ref":"PG","platform_model":"Route-specific platform group"}},{"type":"Feature","geometry":{"type":"Point","coordinates":[103.906653,1.412705]},"properties":{"id":"gtfs/singapore-rail/PW2/PG","name":"Teck Lee","mode":"subway","system":"Metro","status":"open","status_detail":"Open","status_source":"Published in current static GTFS","network":"Singapore MRT and LRT","operator":"SBST","ref":"PW2","route_ref":"PG","platform_model":"Route-specific platform group"}},{"type":"Feature","geometry":{"type":"Point","coordinates":[103.906664,1.416845]},"properties":{"id":"gtfs/singapore-rail/PW3/PG","name":"Punggol Point","mode":"subway","system":"Metro","status":"open","status_detail":"Open","status_source":"Published in current static GTFS","network":"Singapore MRT and LRT","operator":"SBST","ref":"PW3","route_ref":"PG","platform_model":"Route-specific platform group"}},{"type":"Feature","geometry":{"type":"Point","coordinates":[103.90219,1.415976]},"properties":{"id":"gtfs/singapore-rail/PW4/PG","name":"Samudera","mode":"subway","system":"Metro","status":"open","status_detail":"Open","status_source":"Published in current static GTFS","network":"Singapore MRT and LRT","operator":"SBST","ref":"PW4","route_ref":"PG","platform_model":"Route-specific platform group"}},{"type":"Feature","geometry":{"type":"Point","coordinates":[103.900305,1.411831]},"properties":{"id":"gtfs/singapore-rail/PW5/PG","name":"Nibong","mode":"subway","system":"Metro","status":"open","status_detail":"Open","status_source":"Published in current static GTFS","network":"Singapore MRT and LRT","operator":"SBST","ref":"PW5","route_ref":"PG","platform_model":"Route-specific platform group"}},{"type":"Feature","geometry":{"type":"Point","coordinates":[103.898534,1.408532]},"properties":{"id":"gtfs/singapore-rail/PW6/PG","name":"Sumang","mode":"subway","system":"Metro","status":"open","status_detail":"Open","status_source":"Published in current static GTFS","network":"Singapore MRT and LRT","operator":"SBST","ref":"PW6","route_ref":"PG","platform_model":"Route-specific platform group"}},{"type":"Feature","geometry":{"type":"Point","coordinates":[103.897237,1.405394]},"properties":{"id":"gtfs/singapore-rail/PW7/PG","name":"Soo Teck","mode":"subway","system":"Metro","status":"open","status_detail":"Open","status_source":"Published in current static GTFS","network":"Singapore MRT and LRT","operator":"SBST","ref":"PW7","route_ref":"PG","platform_model":"Route-specific platform group"}},{"type":"Feature","geometry":{"type":"Point","coordinates":[103.900435,1.394518]},"properties":{"id":"gtfs/singapore-rail/SE1/SK","name":"Compassvale","mode":"subway","system":"Metro","status":"open","status_detail":"Open","status_source":"Published in current static GTFS","network":"Singapore MRT and LRT","operator":"SBST","ref":"SE1","route_ref":"SK","platform_model":"Route-specific platform group"}},{"type":"Feature","geometry":{"type":"Point","coordinates":[103.905937,1.391509]},"properties":{"id":"gtfs/singapore-rail/SE2/SK","name":"Rumbia","mode":"subway","system":"Metro","status":"open","status_detail":"Open","status_source":"Published in current static GTFS","network":"Singapore MRT and LRT","operator":"SBST","ref":"SE2","route_ref":"SK","platform_model":"Route-specific platform group"}},{"type":"Feature","geometry":{"type":"Point","coordinates":[103.905458,1.388029]},"properties":{"id":"gtfs/singapore-rail/SE3/SK","name":"Bakau","mode":"subway","system":"Metro","status":"open","status_detail":"Open","status_source":"Published in current static GTFS","network":"Singapore MRT and LRT","operator":"SBST","ref":"SE3","route_ref":"SK","platform_model":"Route-specific platform group"}},{"type":"Feature","geometry":{"type":"Point","coordinates":[103.902202,1.383922]},"properties":{"id":"gtfs/singapore-rail/SE4/SK","name":"Kangkar","mode":"subway","system":"Metro","status":"open","status_detail":"Open","status_source":"Published in current static GTFS","network":"Singapore MRT and LRT","operator":"SBST","ref":"SE4","route_ref":"SK","platform_model":"Route-specific platform group"}},{"type":"Feature","geometry":{"type":"Point","coordinates":[103.897349,1.38403]},"properties":{"id":"gtfs/singapore-rail/SE5/SK","name":"Ranggung","mode":"subway","system":"Metro","status":"open","status_detail":"Open","status_source":"Published in current static GTFS","network":"Singapore MRT and LRT","operator":"SBST","ref":"SE5","route_ref":"SK","platform_model":"Route-specific platform group"}},{"type":"Feature","geometry":{"type":"Point","coordinates":[103.893713,1.39631]},"properties":{"id":"gtfs/singapore-rail/SW1/SK","name":"Cheng Lim","mode":"subway","system":"Metro","status":"open","status_detail":"Open","status_source":"Published in current static GTFS","network":"Singapore MRT and LRT","operator":"SBST","ref":"SW1","route_ref":"SK","platform_model":"Route-specific platform group"}},{"type":"Feature","geometry":{"type":"Point","coordinates":[103.889167,1.397191]},"properties":{"id":"gtfs/singapore-rail/SW2/SK","name":"Farmway","mode":"subway","system":"Metro","status":"open","status_detail":"Open","status_source":"Published in current static GTFS","network":"Singapore MRT and LRT","operator":"SBST","ref":"SW2","route_ref":"SK","platform_model":"Route-specific platform group"}},{"type":"Feature","geometry":{"type":"Point","coordinates":[103.881244,1.398204]},"properties":{"id":"gtfs/singapore-rail/SW3/SK","name":"Kupang","mode":"subway","system":"Metro","status":"open","status_detail":"Open","status_source":"Published in current static GTFS","network":"Singapore MRT and LRT","operator":"SBST","ref":"SW3","route_ref":"SK","platform_model":"Route-specific platform group"}},{"type":"Feature","geometry":{"type":"Point","coordinates":[103.875645,1.397434]},"properties":{"id":"gtfs/singapore-rail/SW4/SK","name":"Thanggam","mode":"subway","system":"Metro","status":"open","status_detail":"Open","status_source":"Published in current static GTFS","network":"Singapore MRT and LRT","operator":"SBST","ref":"SW4","route_ref":"SK","platform_model":"Route-specific platform group"}},{"type":"Feature","geometry":{"type":"Point","coordinates":[103.876297,1.391916]},"properties":{"id":"gtfs/singapore-rail/SW5/SK","name":"Fernvale","mode":"subway","system":"Metro","status":"open","status_detail":"Open","status_source":"Published in current static GTFS","network":"Singapore MRT and LRT","operator":"SBST","ref":"SW5","route_ref":"SK","platform_model":"Route-specific platform group"}},{"type":"Feature","geometry":{"type":"Point","coordinates":[103.880074,1.392114]},"properties":{"id":"gtfs/singapore-rail/SW6/SK","name":"Layar","mode":"subway","system":"Metro","status":"open","status_detail":"Open","status_source":"Published in current static GTFS","network":"Singapore MRT and LRT","operator":"SBST","ref":"SW6","route_ref":"SK","platform_model":"Route-specific platform group"}},{"type":"Feature","geometry":{"type":"Point","coordinates":[103.885807,1.389445]},"properties":{"id":"gtfs/singapore-rail/SW7/SK","name":"Tongkang","mode":"subway","system":"Metro","status":"open","status_detail":"Open","status_source":"Published in current static GTFS","network":"Singapore MRT and LRT","operator":"SBST","ref":"SW7","route_ref":"SK","platform_model":"Route-specific platform group"}},{"type":"Feature","geometry":{"type":"Point","coordinates":[103.890485,1.386708]},"properties":{"id":"gtfs/singapore-rail/SW8/SK","name":"Renjong","mode":"subway","system":"Metro","status":"open","status_detail":"Open","status_source":"Published in current static GTFS","network":"Singapore MRT and LRT","operator":"SBST","ref":"SW8","route_ref":"SK","platform_model":"Route-specific platform group"}},{"type":"Feature","geometry":{"type":"Point","coordinates":[103.785519,1.448646]},"properties":{"id":"gtfs/singapore-rail/TE1/TE","name":"Woodlands North","mode":"subway","system":"Metro","status":"open","status_detail":"Open","status_source":"Published in current static GTFS","network":"Singapore MRT and LRT","operator":"SMRT","ref":"TE1","route_ref":"TE","platform_model":"Route-specific platform group"}},{"type":"Feature","geometry":{"type":"Point","coordinates":[103.819006,1.307087]},"properties":{"id":"gtfs/singapore-rail/TE12/TE","name":"Napier","mode":"subway","system":"Metro","status":"open","status_detail":"Open","status_source":"Published in current static GTFS","network":"Singapore MRT and LRT","operator":"SMRT","ref":"TE12","route_ref":"TE","platform_model":"Route-specific platform group"}},{"type":"Feature","geometry":{"type":"Point","coordinates":[103.824014,1.302406]},"properties":{"id":"gtfs/singapore-rail/TE13/TE","name":"Orchard Boulevard","mode":"subway","system":"Metro","status":"open","status_detail":"Open","status_source":"Published in current static GTFS","network":"Singapore MRT and LRT","operator":"SMRT","ref":"TE13","route_ref":"TE","platform_model":"Route-specific platform group"}},{"type":"Feature","geometry":{"type":"Point","coordinates":[103.833483,1.294625]},"properties":{"id":"gtfs/singapore-rail/TE15/TE","name":"Great World","mode":"subway","system":"Metro","status":"open","status_detail":"Open","status_source":"Published in current static GTFS","network":"Singapore MRT and LRT","operator":"SMRT","ref":"TE15","route_ref":"TE","platform_model":"Route-specific platform group"}},{"type":"Feature","geometry":{"type":"Point","coordinates":[103.833707,1.28749]},"properties":{"id":"gtfs/singapore-rail/TE16/TE","name":"Havelock","mode":"subway","system":"Metro","status":"open","status_detail":"Open","status_source":"Published in current static GTFS","network":"Singapore MRT and LRT","operator":"SMRT","ref":"TE16","route_ref":"TE","platform_model":"Route-specific platform group"}},{"type":"Feature","geometry":{"type":"Point","coordinates":[103.844008,1.280685]},"properties":{"id":"gtfs/singapore-rail/TE18/TE","name":"Maxwell","mode":"subway","system":"Metro","status":"open","status_detail":"Open","status_source":"Published in current static GTFS","network":"Singapore MRT and LRT","operator":"SMRT","ref":"TE18","route_ref":"TE","platform_model":"Route-specific platform group"}},{"type":"Feature","geometry":{"type":"Point","coordinates":[103.850548,1.277661]},"properties":{"id":"gtfs/singapore-rail/TE19/TE","name":"Shenton Way","mode":"subway","system":"Metro","status":"open","status_detail":"Open","status_source":"Published in current static GTFS","network":"Singapore MRT and LRT","operator":"SMRT","ref":"TE19","route_ref":"TE","platform_model":"Route-specific platform group"}},{"type":"Feature","geometry":{"type":"Point","coordinates":[103.868124,1.279451]},"properties":{"id":"gtfs/singapore-rail/TE22/TE","name":"Gardens by the Bay","mode":"subway","system":"Metro","status":"open","status_detail":"Open","status_source":"Published in current static GTFS","network":"Singapore MRT and LRT","operator":"SMRT","ref":"TE22","route_ref":"TE","platform_model":"Route-specific platform group"}},{"type":"Feature","geometry":{"type":"Point","coordinates":[103.873453,1.297265]},"properties":{"id":"gtfs/singapore-rail/TE23/TE","name":"Tanjong Rhu","mode":"subway","system":"Metro","status":"open","status_detail":"Open","status_source":"Published in current static GTFS","network":"Singapore MRT and LRT","operator":"SMRT","ref":"TE23","route_ref":"TE","platform_model":"Route-specific platform group"}},{"type":"Feature","geometry":{"type":"Point","coordinates":[103.886179,1.297832]},"properties":{"id":"gtfs/singapore-rail/TE24/TE","name":"Katong Park","mode":"subway","system":"Metro","status":"open","status_detail":"Open","status_source":"Published in current static GTFS","network":"Singapore MRT and LRT","operator":"SMRT","ref":"TE24","route_ref":"TE","platform_model":"Route-specific platform group"}},{"type":"Feature","geometry":{"type":"Point","coordinates":[103.897369,1.299319]},"properties":{"id":"gtfs/singapore-rail/TE25/TE","name":"Tanjong Katong","mode":"subway","system":"Metro","status":"open","status_detail":"Open","status_source":"Published in current static GTFS","network":"Singapore MRT and LRT","operator":"SMRT","ref":"TE25","route_ref":"TE","platform_model":"Route-specific platform group"}},{"type":"Feature","geometry":{"type":"Point","coordinates":[103.904983,1.302612]},"properties":{"id":"gtfs/singapore-rail/TE26/TE","name":"Marine Parade","mode":"subway","system":"Metro","status":"open","status_detail":"Open","status_source":"Published in current static GTFS","network":"Singapore MRT and LRT","operator":"SMRT","ref":"TE26","route_ref":"TE","platform_model":"Route-specific platform group"}},{"type":"Feature","geometry":{"type":"Point","coordinates":[103.915107,1.306665]},"properties":{"id":"gtfs/singapore-rail/TE27/TE","name":"Marine Terrace","mode":"subway","system":"Metro","status":"open","status_detail":"Open","status_source":"Published in current static GTFS","network":"Singapore MRT and LRT","operator":"SMRT","ref":"TE27","route_ref":"TE","platform_model":"Route-specific platform group"}},{"type":"Feature","geometry":{"type":"Point","coordinates":[103.930026,1.310009]},"properties":{"id":"gtfs/singapore-rail/TE28/TE","name":"Siglap","mode":"subway","system":"Metro","status":"open","status_detail":"Open","status_source":"Published in current static GTFS","network":"Singapore MRT and LRT","operator":"SMRT","ref":"TE28","route_ref":"TE","platform_model":"Route-specific platform group"}},{"type":"Feature","geometry":{"type":"Point","coordinates":[103.942308,1.313123]},"properties":{"id":"gtfs/singapore-rail/TE29/TE","name":"Bayshore","mode":"subway","system":"Metro","status":"open","status_detail":"Open","status_source":"Published in current static GTFS","network":"Singapore MRT and LRT","operator":"SMRT","ref":"TE29","route_ref":"TE","platform_model":"Route-specific platform group"}},{"type":"Feature","geometry":{"type":"Point","coordinates":[103.794295,1.427145]},"properties":{"id":"gtfs/singapore-rail/TE3/TE","name":"Woodlands South","mode":"subway","system":"Metro","status":"open","status_detail":"Open","status_source":"Published in current static GTFS","network":"Singapore MRT and LRT","operator":"SMRT","ref":"TE3","route_ref":"TE","platform_model":"Route-specific platform group"}},{"type":"Feature","geometry":{"type":"Point","coordinates":[103.817932,1.397771]},"properties":{"id":"gtfs/singapore-rail/TE4/TE","name":"Springleaf","mode":"subway","system":"Metro","status":"open","status_detail":"Open","status_source":"Published in current static GTFS","network":"Singapore MRT and LRT","operator":"SMRT","ref":"TE4","route_ref":"TE","platform_model":"Route-specific platform group"}},{"type":"Feature","geometry":{"type":"Point","coordinates":[103.836626,1.384738]},"properties":{"id":"gtfs/singapore-rail/TE5/TE","name":"Lentor","mode":"subway","system":"Metro","status":"open","status_detail":"Open","status_source":"Published in current static GTFS","network":"Singapore MRT and LRT","operator":"SMRT","ref":"TE5","route_ref":"TE","platform_model":"Route-specific platform group"}},{"type":"Feature","geometry":{"type":"Point","coordinates":[103.836789,1.372151]},"properties":{"id":"gtfs/singapore-rail/TE6/TE","name":"Mayflower","mode":"subway","system":"Metro","status":"open","status_detail":"Open","status_source":"Published in current static GTFS","network":"Singapore MRT and LRT","operator":"SMRT","ref":"TE6","route_ref":"TE","platform_model":"Route-specific platform group"}},{"type":"Feature","geometry":{"type":"Point","coordinates":[103.832836,1.363449]},"properties":{"id":"gtfs/singapore-rail/TE7/TE","name":"Bright Hill","mode":"subway","system":"Metro","status":"open","status_detail":"Open","status_source":"Published in current static GTFS","network":"Singapore MRT and LRT","operator":"SMRT","ref":"TE7","route_ref":"TE","platform_model":"Route-specific platform group"}},{"type":"Feature","geometry":{"type":"Point","coordinates":[103.832819,1.354486]},"properties":{"id":"gtfs/singapore-rail/TE8/TE","name":"Upper Thomson","mode":"subway","system":"Metro","status":"open","status_detail":"Open","status_source":"Published in current static GTFS","network":"Singapore MRT and LRT","operator":"SMRT","ref":"TE8","route_ref":"TE","platform_model":"Route-specific platform group"}}]}
